{
"type": "FeatureCollection",
"name": "coimbatore_boundary",
"crs": { "type": "name", "properties": { "name": "urn:ogc:def:crs:OGC:1.3:CRS84" } },
"features": [
{ "type": "Feature", "properties": { }, "geometry": { "type": "Polygon", "coordinates": [ [ [ 76.943419785938318, 10.931047221118375 ], [ 76.943129480020318, 10.931063416718885 ], [ 76.942883667976773, 10.931222826617292 ], [ 76.942726189767825, 10.931568221512833 ], [ 76.942598124867942, 10.931970828386271 ], [ 76.942585659608909, 10.932286601972928 ], [ 76.942442233756339, 10.932560158800143 ], [ 76.942444008285634, 10.932832792653288 ], [ 76.942343208397034, 10.932962581081048 ], [ 76.94205299377488, 10.93299312513888 ], [ 76.941806152535449, 10.932994693815058 ], [ 76.94137111034307, 10.933083556535456 ], [ 76.941095882107206, 10.933185753276456 ], [ 76.940818787202062, 10.93300096652877 ], [ 76.940571292614862, 10.932902090048048 ], [ 76.940280144636091, 10.932789140758015 ], [ 76.94013475728552, 10.932761364334176 ], [ 76.939859062342563, 10.932791814123844 ], [ 76.939656060986266, 10.932836152028461 ], [ 76.939381111859532, 10.932981394814847 ], [ 76.939178762951187, 10.933126176679274 ], [ 76.939091455852576, 10.933098031183114 ], [ 76.938931361794246, 10.933041647974637 ], [ 76.938741295381092, 10.932841957104561 ], [ 76.938682096415135, 10.932670135401883 ], [ 76.938536429516589, 10.93259931063079 ], [ 76.937781385023655, 10.93260409945138 ], [ 76.937548877250364, 10.932576874175792 ], [ 76.937373890946631, 10.932463185339673 ], [ 76.937184291543431, 10.932335239228987 ], [ 76.936979985956, 10.932178686611074 ], [ 76.936805186312114, 10.932093695766957 ], [ 76.936646675968888, 10.932281247592769 ], [ 76.936429060903848, 10.93231132619221 ], [ 76.936152993042626, 10.932284375813847 ], [ 76.935934912464873, 10.932242708039915 ], [ 76.935599740589467, 10.932058283773978 ], [ 76.93543964746371, 10.932001898523122 ], [ 76.935177820786791, 10.931931807601584 ], [ 76.934669245860889, 10.931877628404969 ], [ 76.934407791374085, 10.931864933650834 ], [ 76.934277389612873, 10.931908808460392 ], [ 76.934205998106208, 10.932095807838666 ], [ 76.934076991058532, 10.93235492091287 ], [ 76.933786867773179, 10.932399806383414 ], [ 76.933496744353533, 10.932444691593092 ], [ 76.93332259587261, 10.932460143211182 ], [ 76.93324934460162, 10.932360157909857 ], [ 76.933088415048786, 10.932174628306567 ], [ 76.932942098736689, 10.932003355974555 ], [ 76.932854234689714, 10.931889113140986 ], [ 76.932679714751472, 10.931847167406847 ], [ 76.932374606877843, 10.931820397131478 ], [ 76.931997177166366, 10.93183713323724 ], [ 76.931619747331311, 10.931853868883767 ], [ 76.931402410014215, 10.931926991669975 ], [ 76.931228261514036, 10.931942442061183 ], [ 76.930981141040689, 10.931900954102824 ], [ 76.930211110803313, 10.931834069395853 ], [ 76.929949748667127, 10.931835720043432 ], [ 76.929471605068187, 10.93199658752634 ], [ 76.929415565378036, 10.932312637977446 ], [ 76.928172858421547, 10.933253222137251 ], [ 76.928043010965695, 10.933383190173204 ], [ 76.927941647598445, 10.93342687930606 ], [ 76.927810594866585, 10.93337030670985 ], [ 76.927751865145012, 10.933270228211818 ], [ 76.927288423165066, 10.933459699805825 ], [ 76.927013372886435, 10.933590583294169 ], [ 76.926709189205852, 10.933707300409139 ], [ 76.926491756165404, 10.933766070841594 ], [ 76.926231040150427, 10.933868163606595 ], [ 76.925969490389292, 10.933841112575589 ], [ 76.925650044824081, 10.933843125936244 ], [ 76.925518529199366, 10.933714805849108 ], [ 76.92476801143205, 10.934422678660557 ], [ 76.924517557134749, 10.933864610829389 ], [ 76.924354595488722, 10.933363391183752 ], [ 76.924236397982966, 10.933048438007878 ], [ 76.924118478324772, 10.932776532655765 ], [ 76.923897344952039, 10.93226132889658 ], [ 76.923866639592674, 10.932003224163616 ], [ 76.923762963523856, 10.931688179192571 ], [ 76.923570964615095, 10.931187141437828 ], [ 76.923539889915943, 10.930871639337822 ], [ 76.923392284585489, 10.930499470978207 ], [ 76.923199362897293, 10.929854939554238 ], [ 76.923080244191027, 10.929396492241853 ], [ 76.922800019249209, 10.928723809700875 ], [ 76.922534777786652, 10.928122781966756 ], [ 76.92231383656582, 10.927636274516372 ], [ 76.921886845978321, 10.926720564777682 ], [ 76.921695224034522, 10.926276921944194 ], [ 76.921520061636386, 10.926134523656421 ], [ 76.92127091505472, 10.925777341380348 ], [ 76.921052101161095, 10.92562086709367 ], [ 76.920905610028555, 10.925420888526443 ], [ 76.92087555500099, 10.925263228209245 ], [ 76.920844946266342, 10.925019471836819 ], [ 76.92082885747061, 10.924775624244537 ], [ 76.920827196292009, 10.924517336099091 ], [ 76.920722973556778, 10.924116192909485 ], [ 76.920677937686037, 10.923886876997756 ], [ 76.920574822704396, 10.923657925805085 ], [ 76.920529325761379, 10.923356863108483 ], [ 76.920441099941641, 10.923185218019524 ], [ 76.920207399766454, 10.922971436486534 ], [ 76.920104562266246, 10.922785533055297 ], [ 76.920001817138584, 10.922613978915955 ], [ 76.919971394203486, 10.922398920950865 ], [ 76.919895936597769, 10.92195454676701 ], [ 76.919792638669676, 10.921696896362702 ], [ 76.919732623437582, 10.921395924454561 ], [ 76.919730502711118, 10.921065889315473 ], [ 76.919743823744511, 10.920879256590688 ], [ 76.919754747571019, 10.920319540653027 ], [ 76.919810613360525, 10.919974791677008 ], [ 76.919791944962384, 10.919329161826877 ], [ 76.919660715454043, 10.919243885660187 ], [ 76.918186072156431, 10.920243281110144 ], [ 76.91810024388387, 10.920444718510453 ], [ 76.9181450926135, 10.920645336538428 ], [ 76.918859641425868, 10.923381693519342 ], [ 76.918874898697212, 10.92349639729121 ], [ 76.918890340359383, 10.923639799777057 ], [ 76.918804327650335, 10.923812538699337 ], [ 76.918485536641597, 10.923914988289278 ], [ 76.918108665998574, 10.924017801867414 ], [ 76.91786192081922, 10.92403369932015 ], [ 76.917659011511077, 10.924092371541478 ], [ 76.917616557517164, 10.924264837113098 ], [ 76.91761766308835, 10.924437029538725 ], [ 76.917473385677866, 10.924581433701686 ], [ 76.917256600831976, 10.924740642374413 ], [ 76.917025111635368, 10.924871243210259 ], [ 76.916967676799175, 10.924972052922225 ], [ 76.917070052961321, 10.925086210723808 ], [ 76.917158277762582, 10.925257856999117 ], [ 76.917072171548512, 10.925416246292889 ], [ 76.916914018268031, 10.925661186955271 ], [ 76.91661011272285, 10.925820941496681 ], [ 76.916320450519066, 10.92593755665388 ], [ 76.915784409035609, 10.926127465180889 ], [ 76.915480042036023, 10.926215471851469 ], [ 76.915161430921572, 10.926346617360583 ], [ 76.91289916218058, 10.926805628623169 ], [ 76.912609037467362, 10.926850493618424 ], [ 76.912434797148592, 10.926851583552127 ], [ 76.912318545027901, 10.926837960708403 ], [ 76.9121733447449, 10.926838868854437 ], [ 76.911984400594392, 10.926811350513438 ], [ 76.911911249180321, 10.926725708026966 ], [ 76.911794354000733, 10.926611639061756 ], [ 76.911764395270993, 10.926468326482381 ], [ 76.911763660330436, 10.926353531152847 ], [ 76.911718722343238, 10.926138562262153 ], [ 76.911717895581006, 10.926009417510144 ], [ 76.911644652611159, 10.925909425491934 ], [ 76.911484289786685, 10.92580997807973 ], [ 76.911120739139918, 10.925726150581605 ], [ 76.910990151104969, 10.925741316745672 ], [ 76.910743311330236, 10.925742859328034 ], [ 76.910568704250267, 10.925686550382313 ], [ 76.910278212703091, 10.925674015325992 ], [ 76.909859610811537, 10.926064080357554 ], [ 76.909671768305046, 10.92620875367442 ], [ 76.909396071414065, 10.926239175480186 ], [ 76.909280553453158, 10.926340346913625 ], [ 76.908976274943683, 10.926442696903976 ], [ 76.90871601492502, 10.926616521903314 ], [ 76.908542508065892, 10.926732405140415 ], [ 76.908281330467872, 10.926762735401716 ], [ 76.907976592592135, 10.926793337286343 ], [ 76.90778838185139, 10.926880611873544 ], [ 76.907673138058172, 10.927024831178789 ], [ 76.907819897448846, 10.92726786578104 ], [ 76.907907934870394, 10.927410816597947 ], [ 76.907821639495907, 10.92754050530057 ], [ 76.907778904372677, 10.92766992216548 ], [ 76.907823931733347, 10.927899241502711 ], [ 76.907897174184328, 10.927999234558046 ], [ 76.907912244485289, 10.928085240622256 ], [ 76.907972067305153, 10.928357517621489 ], [ 76.908001932918964, 10.928486481385152 ], [ 76.908046227010288, 10.928601005065731 ], [ 76.908133898180452, 10.928686557943044 ], [ 76.908279374864975, 10.928728699893407 ], [ 76.908482290089054, 10.92867003307461 ], [ 76.908714062021673, 10.928582485933136 ], [ 76.908902548625733, 10.928538258964469 ], [ 76.909148932176961, 10.928464970297242 ], [ 76.909250573109887, 10.928464335514073 ], [ 76.909310305471962, 10.928722262591764 ], [ 76.909462023371674, 10.929740165388736 ], [ 76.909522766060789, 10.930155936078672 ], [ 76.909538754975003, 10.930385436266487 ], [ 76.909583509017082, 10.930571706717314 ], [ 76.909701598789042, 10.930872318964504 ], [ 76.909846801243361, 10.930871411661416 ], [ 76.910064604900896, 10.930870050577628 ], [ 76.910283786065506, 10.931083930704405 ], [ 76.910371458619167, 10.931169482695456 ], [ 76.910488355435447, 10.9312835519638 ], [ 76.910619037764661, 10.931282735027509 ], [ 76.910953187411423, 10.93130934588482 ], [ 76.911403682877605, 10.931363928725773 ], [ 76.911564048987586, 10.93146337564745 ], [ 76.911709251570926, 10.931462467411389 ], [ 76.911928250378438, 10.931647647258162 ], [ 76.912132821110674, 10.931847267158442 ], [ 76.912367444080914, 10.932204548611802 ], [ 76.912939253872651, 10.933061968406422 ], [ 76.913159450563612, 10.933433689199564 ], [ 76.913380015892841, 10.933862807315286 ], [ 76.913746706035198, 10.934434509638415 ], [ 76.914097588545985, 10.934805410793505 ], [ 76.914419983536192, 10.935262589676983 ], [ 76.914742471668461, 10.935734117422694 ], [ 76.915064868780249, 10.93619129526261 ], [ 76.915342784234412, 10.936505251946835 ], [ 76.915899630692991, 10.937291007325452 ], [ 76.916045941756394, 10.937462288989686 ], [ 76.915907188256412, 10.93846765571428 ], [ 76.915838272231127, 10.939042085939302 ], [ 76.915799226951563, 10.939745478326209 ], [ 76.915800978328335, 10.940018116348433 ], [ 76.915758430363695, 10.940176232687644 ], [ 76.915687025409326, 10.940363229946326 ], [ 76.915455063545636, 10.940422084772143 ], [ 76.915222640787718, 10.940409192567188 ], [ 76.91494693244961, 10.940439621476406 ], [ 76.914874881944044, 10.940526173001615 ], [ 76.914890324016923, 10.940669575715317 ], [ 76.914979198863108, 10.940941667517663 ], [ 76.915156856997115, 10.941471501575363 ], [ 76.915246101108494, 10.941800990695199 ], [ 76.915248313168831, 10.942145375630218 ], [ 76.91516395373624, 10.942576403294499 ], [ 76.914967759704496, 10.943682580147799 ], [ 76.914785809270157, 10.94474561784218 ], [ 76.914648527056713, 10.945980574811134 ], [ 76.914634927866445, 10.946124159633005 ], [ 76.914621144322908, 10.946239045708161 ], [ 76.914330725257145, 10.94624086730464 ], [ 76.913997111852552, 10.946300359314712 ], [ 76.913823413149814, 10.946387548236739 ], [ 76.913678848408594, 10.946488904371543 ], [ 76.913696225576757, 10.946933644136045 ], [ 76.913814052115868, 10.947191204559324 ], [ 76.913887670784277, 10.947348592436535 ], [ 76.91400476044214, 10.947491357703479 ], [ 76.914267244793962, 10.947661910876851 ], [ 76.914369445019346, 10.947747369534824 ], [ 76.913776426874421, 10.950377130779826 ], [ 76.913478947545173, 10.951541343001084 ], [ 76.913180637168523, 10.952576410822948 ], [ 76.913268502131345, 10.952690659420874 ], [ 76.913356090650524, 10.952761859847088 ], [ 76.913357288887227, 10.952948401761287 ], [ 76.91319958235897, 10.953265089958579 ], [ 76.913172014428312, 10.953494862176107 ], [ 76.913201794428431, 10.95360947504934 ], [ 76.913203177009336, 10.953824715726974 ], [ 76.913276889803385, 10.953996452843056 ], [ 76.913451975574034, 10.95412450414053 ], [ 76.913684962490478, 10.95422349213673 ], [ 76.913961329164351, 10.954293507822904 ], [ 76.914150383372629, 10.954335371295256 ], [ 76.914339529847481, 10.954391584009574 ], [ 76.91432832892869, 10.954908252403454 ], [ 76.914315467817929, 10.955166632169345 ], [ 76.914636045409353, 10.955336819181202 ], [ 76.91500018752761, 10.955506732252768 ], [ 76.915247605032604, 10.955591278235344 ], [ 76.915437121622659, 10.95570488752635 ], [ 76.915555231247794, 10.956005494368283 ], [ 76.915630884599821, 10.956478567040591 ], [ 76.915676479886002, 10.956793979189374 ], [ 76.915721059783607, 10.956951548413 ], [ 76.915794221055947, 10.957037188390627 ], [ 76.915939528063703, 10.95705062539585 ], [ 76.91609981824358, 10.957135717838542 ], [ 76.916071698706162, 10.957279393841016 ], [ 76.916014628522731, 10.957437601686772 ], [ 76.915957558291254, 10.95759580953048 ], [ 76.916031735587481, 10.957839292269471 ], [ 76.916210796133811, 10.958584363376085 ], [ 76.916255561458016, 10.958770631107315 ], [ 76.916386624868565, 10.958827207059832 ], [ 76.916625713792641, 10.959873248726321 ], [ 76.916569013218052, 10.960088854061473 ], [ 76.916628762735499, 10.960346777066849 ], [ 76.91674789257381, 10.960805225609885 ], [ 76.916938984299705, 10.961162772057625 ], [ 76.917086326659089, 10.961491893615168 ], [ 76.917234316451783, 10.96192146039799 ], [ 76.917337817172736, 10.962207807717858 ], [ 76.917339481195881, 10.962466095757927 ], [ 76.917399694450395, 10.962795765054478 ], [ 76.917401266163793, 10.963039703740867 ], [ 76.91744575598031, 10.963182923005746 ], [ 76.917546761015004, 10.963081838134404 ], [ 76.917662565124559, 10.963023709868434 ], [ 76.917807597611343, 10.962994097477509 ], [ 76.917952999981864, 10.963021882341376 ], [ 76.918026348570322, 10.963136220048929 ], [ 76.918129758139003, 10.963408217550484 ], [ 76.918203754395691, 10.963623000474952 ], [ 76.918407521689048, 10.963693467431613 ], [ 76.918740566290211, 10.963543088476056 ], [ 76.919406901141755, 10.96328059448455 ], [ 76.919638693607467, 10.963193035230081 ], [ 76.919640822613346, 10.9635230694792 ], [ 76.920019221383072, 10.963649834889306 ], [ 76.92092234886546, 10.964074640493394 ], [ 76.921300378038467, 10.964144006894571 ], [ 76.921561862501335, 10.964156708145863 ], [ 76.921793283986446, 10.964011750062507 ], [ 76.921893638777505, 10.963810218886795 ], [ 76.922139303488734, 10.963622121152026 ], [ 76.922473303361258, 10.963620014454484 ], [ 76.923026334600877, 10.963803073743923 ], [ 76.923404548959596, 10.963901136075656 ], [ 76.923971638873113, 10.964012355417619 ], [ 76.924669610310161, 10.964151446792629 ], [ 76.92589157207523, 10.96447377351787 ], [ 76.926371625673951, 10.964599887934771 ], [ 76.92804739074856, 10.965478979711945 ], [ 76.928804848553341, 10.965832931676481 ], [ 76.929475084062091, 10.966173083975914 ], [ 76.931164827931909, 10.966965968198664 ], [ 76.93136906503868, 10.96710817162171 ], [ 76.931343468472548, 10.967639276586347 ], [ 76.931258573299303, 10.967984210031309 ], [ 76.931291343829457, 10.968557994388403 ], [ 76.93123763535138, 10.969232775592273 ], [ 76.931210734531476, 10.969562991589996 ], [ 76.931573689974798, 10.96954634044323 ], [ 76.93205356655686, 10.969643745655839 ], [ 76.932041654764262, 10.970045615477419 ], [ 76.932030302382699, 10.970533580514999 ], [ 76.931975477295254, 10.971036171102574 ], [ 76.931863030148335, 10.971610876186503 ], [ 76.931894032045804, 10.971912025223855 ], [ 76.931793309914909, 10.972056162094418 ], [ 76.932113914206283, 10.972226325760765 ], [ 76.932579926102093, 10.972424265877628 ], [ 76.932901370705238, 10.972723571313928 ], [ 76.933237338048102, 10.973022784101383 ], [ 76.933298132425293, 10.973438541833273 ], [ 76.933257178788253, 10.973840595754707 ], [ 76.933316853731256, 10.974084163159503 ], [ 76.933536085907818, 10.974298017788406 ], [ 76.933884897712588, 10.974338851885856 ], [ 76.934393640001602, 10.97440736910235 ], [ 76.934815156052551, 10.97446208995324 ], [ 76.93529588179338, 10.974688631042611 ], [ 76.935615929939217, 10.974772695154279 ], [ 76.936110337641054, 10.97486999995632 ], [ 76.936299406170193, 10.974911846882812 ], [ 76.936634070319727, 10.97501016663643 ], [ 76.936837848118643, 10.975080619143629 ], [ 76.93708528601141, 10.975165143470873 ], [ 76.937074223754223, 10.975696154635163 ], [ 76.936834546414701, 10.976802610428699 ], [ 76.936576885920061, 10.977378239807846 ], [ 76.936450953935761, 10.978110878398249 ], [ 76.93633701938866, 10.978455997321685 ], [ 76.936105877368249, 10.978644014522212 ], [ 76.935787600885277, 10.978832585791018 ], [ 76.935556084316431, 10.978963206016569 ], [ 76.935237620167428, 10.979123078487588 ], [ 76.935078901913229, 10.979281935050627 ], [ 76.934934986216547, 10.979483746741151 ], [ 76.934833890049603, 10.979570488052126 ], [ 76.93461530653947, 10.979457079459554 ], [ 76.93449781943076, 10.979256929505215 ], [ 76.93442380623091, 10.979042153401794 ], [ 76.934320748416738, 10.97882756184865 ], [ 76.934043329012198, 10.978599728451316 ], [ 76.933824466341704, 10.978443271568985 ], [ 76.931842988029345, 10.977465718835235 ], [ 76.931566131156188, 10.977323977826826 ], [ 76.931289927249736, 10.977282680944489 ], [ 76.931028991587382, 10.977356085319615 ], [ 76.930710246084146, 10.97747290556317 ], [ 76.930464018798205, 10.977574915814031 ], [ 76.930217418515909, 10.977619529044887 ], [ 76.929941587046315, 10.977635627811653 ], [ 76.929767411988109, 10.977651081880758 ], [ 76.929593143724986, 10.977652186635758 ], [ 76.929476964872563, 10.977652923083747 ], [ 76.929128055678078, 10.977597735276326 ], [ 76.929012901374122, 10.977756312989344 ], [ 76.928825507618598, 10.977972747703035 ], [ 76.928753547651212, 10.978073652388165 ], [ 76.928608975689357, 10.978175017153303 ], [ 76.928450253706814, 10.978333870781741 ], [ 76.927468035619398, 10.979158032221109 ], [ 76.927338729704459, 10.979374098448114 ], [ 76.926731205537905, 10.979751040627098 ], [ 76.926208954209869, 10.979840445470053 ], [ 76.926078530833962, 10.97988432041668 ], [ 76.925817590933434, 10.979957720914021 ], [ 76.925600404383616, 10.980059544046227 ], [ 76.925426134279292, 10.980060646655186 ], [ 76.925324104773168, 10.980003892792022 ], [ 76.925076943210428, 10.979962406799382 ], [ 76.92491673080039, 10.979891670969666 ], [ 76.924582527243885, 10.979865084918275 ], [ 76.924277368701269, 10.979838314844303 ], [ 76.923842994155322, 10.980041958928675 ], [ 76.923639493027366, 10.980014545589022 ], [ 76.923190595113141, 10.980218280652357 ], [ 76.923031218706996, 10.980276687213577 ], [ 76.922784149771999, 10.980249548615095 ], [ 76.922551139131841, 10.980150571690659 ], [ 76.922376868660635, 10.980151672563162 ], [ 76.922144136677744, 10.98009574312513 ], [ 76.921781165968724, 10.980112385281725 ], [ 76.920987064822, 10.980834892478384 ], [ 76.919903341807441, 10.981688374596786 ], [ 76.919938322586916, 10.982606546217589 ], [ 76.920842811431172, 10.983232231874895 ], [ 76.92096001387678, 10.983389340491408 ], [ 76.921033184265625, 10.983474977718474 ], [ 76.920918394582415, 10.983690950565112 ], [ 76.920716653918134, 10.983936172101446 ], [ 76.920457285846709, 10.98425350671258 ], [ 76.920343144981118, 10.984569924478199 ], [ 76.920360729685243, 10.985043359338599 ], [ 76.920398405239695, 10.986377659744292 ], [ 76.920432091256586, 10.987094940685536 ], [ 76.920512409625502, 10.988285472831571 ], [ 76.920461836692169, 10.989448131707121 ], [ 76.920724550689002, 10.989647370566507 ], [ 76.920503973349767, 10.991471197092224 ], [ 76.920335916733336, 10.992433699836063 ], [ 76.920256020199005, 10.993553494265452 ], [ 76.919827805973213, 10.99695711824717 ], [ 76.919786836040444, 10.99735917340098 ], [ 76.919599238941942, 10.997546906821457 ], [ 76.919382966158381, 10.997792220779475 ], [ 76.919339952968357, 10.997878591701097 ], [ 76.919341902839165, 10.998179926688401 ], [ 76.91932979357756, 10.99855309983421 ], [ 76.919316291516381, 10.998711033707542 ], [ 76.919200289421767, 10.998740466192823 ], [ 76.918996496539961, 10.998670004002062 ], [ 76.918647283354659, 10.998571760203255 ], [ 76.918370873306429, 10.998501756083321 ], [ 76.918079383118993, 10.998345747597948 ], [ 76.917715646991795, 10.998247594289165 ], [ 76.917220272373612, 10.99800677223776 ], [ 76.916870782053749, 10.997865478243611 ], [ 76.916623512456155, 10.997809638420284 ], [ 76.916202239575213, 10.997797945389376 ], [ 76.915794841346866, 10.997685714995507 ], [ 76.915300580583221, 10.997617081218474 ], [ 76.914835459452618, 10.997562612886476 ], [ 76.914385232257686, 10.997565449626496 ], [ 76.91379004803072, 10.997612248417873 ], [ 76.912324009762244, 10.997750627347436 ], [ 76.911859258128104, 10.99775355179378 ], [ 76.911496540700725, 10.99781323342944 ], [ 76.911191639698444, 10.99782950121191 ], [ 76.910828921909555, 10.997889182087889 ], [ 76.910582114714927, 10.997905083952364 ], [ 76.910335215045052, 10.99790663625957 ], [ 76.910073699423108, 10.997893930297325 ], [ 76.909654919459228, 10.998269661056307 ], [ 76.909264723685595, 10.998573462038356 ], [ 76.908989699715917, 10.998718689581979 ], [ 76.908729199017898, 10.998863825683229 ], [ 76.908425219626963, 10.999023584653679 ], [ 76.908368510245325, 10.99923919019203 ], [ 76.908268599305671, 10.999512466902383 ], [ 76.908269984244598, 10.999727707555037 ], [ 76.908416328472072, 10.99989898780029 ], [ 76.908620028603906, 10.999955107993852 ], [ 76.909056661032537, 11.000095864146894 ], [ 76.909624468467328, 11.000307544831182 ], [ 76.910192184127268, 11.000504874955192 ], [ 76.91061494129103, 11.000746165417219 ], [ 76.910964433497909, 11.000887466517971 ], [ 76.911197829214956, 11.001043847517233 ], [ 76.911403657762378, 11.001430000646923 ], [ 76.911551207127502, 11.001787820434972 ], [ 76.911656110943525, 11.002289407758626 ], [ 76.911614297588244, 11.002562319547405 ], [ 76.911543899292298, 11.002907160880319 ], [ 76.911458607077094, 11.003194696234457 ], [ 76.911272388376474, 11.003597666164865 ], [ 76.911112164266001, 11.003526924751728 ], [ 76.91108200672754, 11.003354915334027 ], [ 76.910789404187454, 11.003026707825194 ], [ 76.910540096145638, 11.002655177791548 ], [ 76.910203369080421, 11.002241147393374 ], [ 76.909984219124709, 11.002041626307211 ], [ 76.909751100273866, 11.001928292495533 ], [ 76.909300125923295, 11.001816327885145 ], [ 76.90903842194389, 11.001774922867282 ], [ 76.908791149338995, 11.001719076977437 ], [ 76.908558677587749, 11.001706187736042 ], [ 76.908238971197306, 11.001679496373377 ], [ 76.907875878317242, 11.001681777082222 ], [ 76.90757088023625, 11.001683692542734 ], [ 76.907440351369786, 11.001713212124482 ], [ 76.907163662281363, 11.001600149709112 ], [ 76.906755429478125, 11.001358763024244 ], [ 76.906348857785403, 11.001375664721571 ], [ 76.906087338659859, 11.00136295581132 ], [ 76.905840527689804, 11.00137885434385 ], [ 76.905579654010481, 11.001466590776552 ], [ 76.905247360086179, 11.001741324687664 ], [ 76.904901555832325, 11.002173992844194 ], [ 76.905152055744878, 11.002732070971106 ], [ 76.905343723727725, 11.003175717983574 ], [ 76.905447234894609, 11.00346206813143 ], [ 76.905304947707634, 11.003922160010914 ], [ 76.905175339674827, 11.004095172802966 ], [ 76.904494654126339, 11.004400791709914 ], [ 76.900431931847322, 11.007310594666846 ], [ 76.899434186299985, 11.00800563906891 ], [ 76.898971346100225, 11.008309884861724 ], [ 76.898609898012865, 11.008570445936872 ], [ 76.898349566724377, 11.008744274233894 ], [ 76.898118099582277, 11.008889221827104 ], [ 76.897701310319093, 11.009580628985219 ], [ 76.8973548431469, 11.00991284547978 ], [ 76.897050753479974, 11.010058246397008 ], [ 76.896746112302296, 11.010117550277357 ], [ 76.896543599821342, 11.010247965983949 ], [ 76.896268006742275, 11.010307087934809 ], [ 76.896166428911016, 11.010322072531192 ], [ 76.895860685298416, 11.010209181949259 ], [ 76.895598973604635, 11.010167766283768 ], [ 76.895395542485133, 11.010154686567825 ], [ 76.895119673732452, 11.010170759068828 ], [ 76.894916517898324, 11.010200727464124 ], [ 76.894800507480284, 11.010230151757277 ], [ 76.894641474853699, 11.010345944868277 ], [ 76.894353283494908, 11.010706494955581 ], [ 76.893963604875253, 11.011096378282685 ], [ 76.893748125311987, 11.011470824343577 ], [ 76.893647280611091, 11.011600604085684 ], [ 76.893224791343869, 11.011402338898836 ], [ 76.892845967179255, 11.011218150789423 ], [ 76.892628010826044, 11.011205159895948 ], [ 76.892395071852306, 11.011120511906455 ], [ 76.891987016533335, 11.010907804679864 ], [ 76.891754261160074, 11.010851855136151 ], [ 76.891550920914, 11.010853122397963 ], [ 76.891391061951708, 11.010839768500851 ], [ 76.891216953484687, 11.01086955354155 ], [ 76.891072351557099, 11.01097090505646 ], [ 76.890942182256111, 11.011057816521143 ], [ 76.890696093005062, 11.011188500305348 ], [ 76.890609313331638, 11.011246441200941 ], [ 76.890319742286422, 11.011391745660282 ], [ 76.890131749819105, 11.011522067228098 ], [ 76.889901099544588, 11.011796155222298 ], [ 76.889814411059987, 11.011868445462932 ], [ 76.889727539457326, 11.011912036645127 ], [ 76.889611619077073, 11.011955808667969 ], [ 76.889466466850195, 11.011971062455745 ], [ 76.88940855238782, 11.012000123188493 ], [ 76.889278199042423, 11.012058335041615 ], [ 76.889002235754319, 11.012060052799312 ], [ 76.888609619898787, 11.011990745745461 ], [ 76.888288985794958, 11.011820539603615 ], [ 76.88796835201903, 11.011650333060098 ], [ 76.887691474543757, 11.0115085541902 ], [ 76.887502200610399, 11.011437980785002 ], [ 76.887356956934966, 11.01143888399938 ], [ 76.887139274213951, 11.011468937775069 ], [ 76.886965164546609, 11.011498720505779 ], [ 76.886748121425654, 11.011629220830816 ], [ 76.886446490351759, 11.012162050032648 ], [ 76.8863463728716, 11.012406624292431 ], [ 76.88624543288573, 11.012522052606464 ], [ 76.886130425233148, 11.012709318915114 ], [ 76.8859855462713, 11.012767619778121 ], [ 76.885724380296296, 11.012812293059504 ], [ 76.885215750517872, 11.012772402748064 ], [ 76.883559232259614, 11.012667887472892 ], [ 76.883268560566776, 11.012640991112296 ], [ 76.883035621853935, 11.012556335686465 ], [ 76.882961357705028, 11.012298493913635 ], [ 76.882973875485234, 11.011982713126066 ], [ 76.882869924354509, 11.011624604467752 ], [ 76.882839325121054, 11.011380841854328 ], [ 76.882794292774619, 11.011151518901919 ], [ 76.882705505004381, 11.010893767046211 ], [ 76.882367979760971, 11.010350554822995 ], [ 76.882104718246509, 11.010065184278966 ], [ 76.88162222534956, 11.009565920107503 ], [ 76.881461091030346, 11.009351666512925 ], [ 76.881343438766521, 11.009122793167112 ], [ 76.88128397498815, 11.008907909313415 ], [ 76.881150978953485, 11.008549979490168 ], [ 76.881061647175713, 11.008206129174599 ], [ 76.88097186027548, 11.007790530807833 ], [ 76.880780677351368, 11.007418610969349 ], [ 76.880720850269896, 11.007146328461603 ], [ 76.880400133964926, 11.006961762715509 ], [ 76.880137878942307, 11.006834235246178 ], [ 76.879773863708962, 11.006692987340838 ], [ 76.879599391304097, 11.006665367076023 ], [ 76.879366549144578, 11.006595057465946 ], [ 76.879164393120547, 11.006782860916703 ], [ 76.878716143749372, 11.007101338683665 ], [ 76.878528602143177, 11.007303401575371 ], [ 76.878429206276195, 11.007662771045654 ], [ 76.878460528718904, 11.008021331759506 ], [ 76.878346790290138, 11.008409490342997 ], [ 76.878159975311917, 11.008726350120741 ], [ 76.877928950394519, 11.008943032043936 ], [ 76.877523724000397, 11.009175141468363 ], [ 76.87716188815844, 11.009378281760485 ], [ 76.876872946283058, 11.009624021588049 ], [ 76.876107061665138, 11.010245814411819 ], [ 76.876006481146746, 11.010418638410597 ], [ 76.87602527615833, 11.011092981480132 ], [ 76.875812043281698, 11.011826159430598 ], [ 76.875453564406413, 11.012560234981324 ], [ 76.875355435854416, 11.013120499164183 ], [ 76.875344363722675, 11.013665875163408 ], [ 76.875217094876376, 11.01421196924897 ], [ 76.875232982316575, 11.014427124058948 ], [ 76.875234799473176, 11.014714116813735 ], [ 76.875353540772693, 11.015115188496512 ], [ 76.875383862257578, 11.01531590385105 ], [ 76.875429253727859, 11.015602627224753 ], [ 76.875561429906455, 11.015831413312176 ], [ 76.875577045218463, 11.016003519126519 ], [ 76.875360265365899, 11.016177061539134 ], [ 76.875069771321321, 11.016178857044027 ], [ 76.874939230699411, 11.016208364207865 ], [ 76.874765115916276, 11.01623814058547 ], [ 76.874649099928206, 11.016267557878795 ], [ 76.874518831710162, 11.016340113800613 ], [ 76.874417340361845, 11.016369441271836 ], [ 76.874375492025237, 11.016642353701576 ], [ 76.874452112645429, 11.017273289244931 ], [ 76.874541804982869, 11.017674540687407 ], [ 76.87452864296327, 11.017889875050155 ], [ 76.87442760534752, 11.017990950814799 ], [ 76.874239691358412, 11.018135613960382 ], [ 76.87412376540648, 11.01817938082314 ], [ 76.873891459262055, 11.018195166205366 ], [ 76.873776441402541, 11.018382429409403 ], [ 76.873763460516798, 11.018626463117991 ], [ 76.873736953841984, 11.019028432657828 ], [ 76.873491393479384, 11.019245202640676 ], [ 76.873070444660726, 11.01929085310671 ], [ 76.872533750420828, 11.019408968687065 ], [ 76.872213930706494, 11.019367892347937 ], [ 76.872112075023438, 11.019339820613629 ], [ 76.871908726646609, 11.01934107567541 ], [ 76.871763114871911, 11.019284573417261 ], [ 76.871661440685202, 11.019285200845129 ], [ 76.871444020978956, 11.019358293541281 ], [ 76.871416331912343, 11.019573717749447 ], [ 76.871417783370617, 11.019803312379437 ], [ 76.871477334551827, 11.020032548502128 ], [ 76.871478332501027, 11.020190394800357 ], [ 76.871524175466575, 11.020548867482882 ], [ 76.871583999174462, 11.020821152521849 ], [ 76.871628844369482, 11.0210217788631 ], [ 76.871673689647054, 11.021222405185313 ], [ 76.871892018082562, 11.0212928087082 ], [ 76.871966004342369, 11.021507605286812 ], [ 76.872069857622989, 11.021851369403107 ], [ 76.872117698883727, 11.022525534233546 ], [ 76.872194318413122, 11.023156470655648 ], [ 76.87209963321186, 11.024262021879762 ], [ 76.872086197541464, 11.02443430742419 ], [ 76.871578997740613, 11.024623991771648 ], [ 76.871506644291614, 11.024667489085036 ], [ 76.871427026760415, 11.02585904877032 ], [ 76.871344232344541, 11.026548370412334 ], [ 76.870459825388352, 11.026812133168223 ], [ 76.870420695405713, 11.027515535675558 ], [ 76.870581471846123, 11.027672395931088 ], [ 76.870364590324357, 11.027831586858301 ], [ 76.870308575911622, 11.028161987709492 ], [ 76.870383743261769, 11.028563330129776 ], [ 76.870370579028702, 11.028778664740603 ], [ 76.870280879896782, 11.030673447923185 ], [ 76.870455820681528, 11.030772819641649 ], [ 76.870847281751111, 11.030655601175763 ], [ 76.871209963946342, 11.030581610620111 ], [ 76.871529160395497, 11.030522238457383 ], [ 76.871688758551599, 11.030492552257602 ], [ 76.872052257716192, 11.030547707601107 ], [ 76.872575173248009, 11.030544476537278 ], [ 76.872938490701515, 11.030570931495946 ], [ 76.873287191822783, 11.030583126168494 ], [ 76.873217473408047, 11.031042763603216 ], [ 76.873147482194739, 11.031459352127181 ], [ 76.873048167205042, 11.031833071334848 ], [ 76.872934417425569, 11.032221229977521 ], [ 76.872877678794779, 11.032436833758092 ], [ 76.872850082061944, 11.032666607591683 ], [ 76.872851263709691, 11.032853152914644 ], [ 76.873128248971199, 11.033009292679578 ], [ 76.874191797245686, 11.03350497165831 ], [ 76.874789074094679, 11.033773929431108 ], [ 76.875181901546199, 11.03387194931631 ], [ 76.875589072672724, 11.033941179479557 ], [ 76.875894382793831, 11.033982339511404 ], [ 76.876066595225566, 11.033651218957276 ], [ 76.876325049837249, 11.033176062464811 ], [ 76.876453775969679, 11.032859561324543 ], [ 76.876612008246127, 11.032614628269208 ], [ 76.876654218560844, 11.032399114206594 ], [ 76.876725297631708, 11.032154720976301 ], [ 76.876941995569922, 11.031966826363572 ], [ 76.877261100201068, 11.031893098502271 ], [ 76.877739528937241, 11.031746632125943 ], [ 76.878073978704847, 11.031801959841092 ], [ 76.878350326756674, 11.031857647377997 ], [ 76.878567570266824, 11.031755849368022 ], [ 76.879032566612608, 11.031781666233814 ], [ 76.87940995428832, 11.031736275061625 ], [ 76.879787341770154, 11.031690883438007 ], [ 76.880339125336704, 11.031658759249968 ], [ 76.880659688451829, 11.031814621228493 ], [ 76.881067678297583, 11.032012990446029 ], [ 76.881373990561613, 11.032211990434051 ], [ 76.881637000832399, 11.032454309389649 ], [ 76.881710723954171, 11.032626053118328 ], [ 76.881627157808452, 11.032686112954156 ], [ 76.881146787485036, 11.033031359131252 ], [ 76.879830807723209, 11.033957937248992 ], [ 76.878542776145181, 11.034712135681838 ], [ 76.876239491290605, 11.035716573306786 ], [ 76.875993374844171, 11.035847249394878 ], [ 76.875747258156082, 11.035977925317427 ], [ 76.875558970770939, 11.036065192427587 ], [ 76.875282891873425, 11.036052551766865 ], [ 76.874860827997097, 11.035926013100813 ], [ 76.87445401806383, 11.035914180882571 ], [ 76.874221061279457, 11.035829521397384 ], [ 76.873698227860714, 11.035847106460015 ], [ 76.873523010147736, 11.035704688420187 ], [ 76.87337729866384, 11.035633838731414 ], [ 76.873130998754121, 11.035735813418469 ], [ 76.872899406182057, 11.035866397384094 ], [ 76.872056461658332, 11.035799857703912 ], [ 76.871228224504094, 11.035761925174342 ], [ 76.870370572578878, 11.035666771113808 ], [ 76.87005064403003, 11.035611345697369 ], [ 76.869584641704876, 11.035427669589067 ], [ 76.869351686095783, 11.035343006062917 ], [ 76.86911900280279, 11.035301391340955 ], [ 76.868917729850551, 11.0356326885993 ], [ 76.868760940919927, 11.036107213627096 ], [ 76.868690217442278, 11.036409004843652 ], [ 76.868720539121398, 11.036609720981698 ], [ 76.868997980402156, 11.036837612611896 ], [ 76.86914387333303, 11.036937163811894 ], [ 76.869246552058812, 11.03709438256181 ], [ 76.869218861859068, 11.037309806864076 ], [ 76.869047819446166, 11.037827470718504 ], [ 76.868817674981386, 11.038187646799651 ], [ 76.86871808120577, 11.038518316687407 ], [ 76.868604052134657, 11.038863425882237 ], [ 76.868590705902974, 11.03905006122535 ], [ 76.868751670338526, 11.03923562080983 ], [ 76.86921631714084, 11.039204052302289 ], [ 76.869739793629179, 11.039286921590506 ], [ 76.870394275694622, 11.039412031340511 ], [ 76.870917752551293, 11.039494898475661 ], [ 76.871035867793893, 11.039795523022278 ], [ 76.87171903929196, 11.039863051524307 ], [ 76.871980505364917, 11.039861435046372 ], [ 76.872070297386273, 11.040277035723447 ], [ 76.873217844002156, 11.040269937911045 ], [ 76.873094388955522, 11.041418717190828 ], [ 76.872965747767694, 11.041749567563279 ], [ 76.872649178070262, 11.042225082496101 ], [ 76.8730142387775, 11.04252417796339 ], [ 76.871471955896027, 11.044427943984266 ], [ 76.871429377721228, 11.044586059498975 ], [ 76.871546132343383, 11.044671438738597 ], [ 76.873093637743196, 11.045881631267294 ], [ 76.873429378461694, 11.046137856312393 ], [ 76.873677689393986, 11.046351571703301 ], [ 76.873911565536702, 11.046579726404554 ], [ 76.874115934230645, 11.046736312718949 ], [ 76.87429106852575, 11.046864379585459 ], [ 76.874293163515347, 11.047194420727289 ], [ 76.874323309062504, 11.047366436137469 ], [ 76.874425539325131, 11.047451903917882 ], [ 76.874571895016985, 11.047623199339286 ], [ 76.874776629268553, 11.047837183462352 ], [ 76.874850900757465, 11.048095026378293 ], [ 76.874954680630978, 11.048424437249585 ], [ 76.875130089754293, 11.048595552213055 ], [ 76.876590221977267, 11.047481536631732 ], [ 76.876879651927396, 11.047307539514566 ], [ 76.877183881396974, 11.047176500828625 ], [ 76.87766215118323, 11.047001331477496 ], [ 76.87811200682178, 11.046926788868079 ], [ 76.878533083636242, 11.046895474730004 ], [ 76.878764589525815, 11.046750535955315 ], [ 76.879155335061952, 11.046518507330868 ], [ 76.87931439219939, 11.046402718405609 ], [ 76.879342074618691, 11.046187294366414 ], [ 76.881337173713376, 11.044682484071298 ], [ 76.881640940829143, 11.044479693864668 ], [ 76.881944524630001, 11.044248204310374 ], [ 76.88223422205391, 11.044117251726583 ], [ 76.882553702896416, 11.04410091460119 ], [ 76.882829056766099, 11.04399875095957 ], [ 76.883017894813463, 11.043997576164967 ], [ 76.883192664305383, 11.044068239355349 ], [ 76.883382325888903, 11.044196210208762 ], [ 76.883629725614398, 11.044266421138429 ], [ 76.883818838323577, 11.04430829443241 ], [ 76.884166821761539, 11.044205677538399 ], [ 76.885877132749528, 11.043606671533851 ], [ 76.886123615885197, 11.04353338520696 ], [ 76.886950311662034, 11.043327331327276 ], [ 76.88761731250338, 11.043136621381821 ], [ 76.887805690929213, 11.043063696157915 ], [ 76.887700616536222, 11.042533398517957 ], [ 76.887684348387921, 11.042260848444295 ], [ 76.887668722168954, 11.042088744922275 ], [ 76.887798996491568, 11.042016182126069 ], [ 76.888118382066025, 11.041985490040279 ], [ 76.888974490086966, 11.041836648343978 ], [ 76.889323018595391, 11.041820123249451 ], [ 76.889466900340665, 11.041603974219257 ], [ 76.889552219715355, 11.041316440351494 ], [ 76.889566194854424, 11.041230252723102 ], [ 76.889477938691925, 11.041058602764965 ], [ 76.889418367161966, 11.040829373471503 ], [ 76.889562799113733, 11.040699321440297 ], [ 76.889780410530591, 11.040654912974929 ], [ 76.890258843184981, 11.040508425575947 ], [ 76.890447402743561, 11.04046419805351 ], [ 76.89049006187453, 11.040320431077271 ], [ 76.890458898648518, 11.039990574268597 ], [ 76.890428561827207, 11.039789862831569 ], [ 76.890427276517642, 11.039588969997403 ], [ 76.89044125139786, 11.039502782374891 ], [ 76.890381955076663, 11.03931660178718 ], [ 76.89038103705883, 11.03917310689758 ], [ 76.890728184841109, 11.038941338417471 ], [ 76.891320431669484, 11.038421037699983 ], [ 76.891610301845091, 11.038318776675126 ], [ 76.892204842750019, 11.038157211548368 ], [ 76.89279947473031, 11.038009994829254 ], [ 76.893263651191248, 11.037906642800886 ], [ 76.893422421663161, 11.037747799674147 ], [ 76.893435844032425, 11.037575515271692 ], [ 76.893332785883487, 11.037360909010737 ], [ 76.893199757543115, 11.037002989625456 ], [ 76.894345529943791, 11.036723174150262 ], [ 76.894591912370075, 11.0366355327308 ], [ 76.894998259528521, 11.036575590319494 ], [ 76.895243445380117, 11.036301405555218 ], [ 76.895445146287045, 11.036041842830141 ], [ 76.895516761568231, 11.035883544354842 ], [ 76.895879714920866, 11.035852572568833 ], [ 76.89608288772969, 11.035822600672738 ], [ 76.896300033607162, 11.035706441045727 ], [ 76.896445564634718, 11.035748579904773 ], [ 76.896519757259981, 11.035992065641038 ], [ 76.896509375099114, 11.036637881427852 ], [ 76.896568674256315, 11.036824060296555 ], [ 76.896758519220441, 11.03698072150979 ], [ 76.896934207239823, 11.03719487129991 ], [ 76.897168642575323, 11.037509102992761 ], [ 76.897521310083008, 11.038138293761602 ], [ 76.897814310089629, 11.038523907745747 ], [ 76.897991382394935, 11.038953298012361 ], [ 76.898080932704858, 11.039325836743238 ], [ 76.898274098951205, 11.03999907580214 ], [ 76.898377346048534, 11.040242378441304 ], [ 76.898537589651312, 11.04031312362291 ], [ 76.898798867629992, 11.040282785091925 ], [ 76.899074302272055, 11.04019495756901 ], [ 76.899190046527139, 11.040122481571846 ], [ 76.899246212224384, 11.039820779394081 ], [ 76.899432555202935, 11.039432160648163 ], [ 76.899474932950042, 11.039245344904401 ], [ 76.899736302024436, 11.039229355145427 ], [ 76.900041616988432, 11.039270489348894 ], [ 76.900710164912098, 11.039323693251786 ], [ 76.901044254230413, 11.039321595834384 ], [ 76.901130761687639, 11.039220602826608 ], [ 76.901129838459994, 11.039077108832666 ], [ 76.901157412516199, 11.038847336037602 ], [ 76.901258168432818, 11.038703203622475 ], [ 76.901882399215623, 11.038641883577995 ], [ 76.902710357100901, 11.038636682068985 ], [ 76.903000221680401, 11.038534410752403 ], [ 76.903318767443835, 11.038374559061372 ], [ 76.903594013488956, 11.038258029172546 ], [ 76.903824943108404, 11.0380269780205 ], [ 76.903852237737311, 11.037754157195433 ], [ 76.903691440227519, 11.037597318521813 ], [ 76.903661095158853, 11.037396609829633 ], [ 76.903659893572097, 11.0372100678902 ], [ 76.90377517319007, 11.037065843610387 ], [ 76.903830502112015, 11.036634996985942 ], [ 76.903858536279984, 11.036476971192098 ], [ 76.903885738546649, 11.03618980098755 ], [ 76.904203726690255, 11.035943852580893 ], [ 76.904464259814787, 11.035798714890538 ], [ 76.904751624265529, 11.03530900938201 ], [ 76.904980978862767, 11.034834018529146 ], [ 76.905124475437887, 11.034560466939713 ], [ 76.90534096840932, 11.034343855980557 ], [ 76.905599927095651, 11.033954778389779 ], [ 76.905700864327784, 11.033839343821429 ], [ 76.905933361817873, 11.033852231039429 ], [ 76.906223682961922, 11.033821704380449 ], [ 76.906440637210281, 11.033676839649866 ], [ 76.906656665809905, 11.03338848121321 ], [ 76.906728274230616, 11.033230181162937 ], [ 76.906785172230997, 11.03304327381607 ], [ 76.906827544923459, 11.032856457893166 ], [ 76.906912845484086, 11.032568922193041 ], [ 76.907185585481557, 11.032064957539895 ], [ 76.907445002810547, 11.031747625820318 ], [ 76.907630590291262, 11.031244209650954 ], [ 76.907759743017124, 11.030999447600212 ], [ 76.907816084691618, 11.030726444106062 ], [ 76.90790138398151, 11.030438908351963 ], [ 76.90794329296574, 11.030180345668629 ], [ 76.908086322130259, 11.029835046679423 ], [ 76.908186423864109, 11.029590467505606 ], [ 76.908184757389648, 11.029332179216214 ], [ 76.908196967962752, 11.02897335401512 ], [ 76.90863225647341, 11.028898863219673 ], [ 76.909098169304499, 11.029068127653792 ], [ 76.909680005030054, 11.029193611038286 ], [ 76.910072552027444, 11.029248536776258 ], [ 76.91040746233142, 11.029375574908663 ], [ 76.911194875068844, 11.029844156936779 ], [ 76.911733879438785, 11.030084705346896 ], [ 76.911982011760614, 11.030269688536871 ], [ 76.912390662725315, 11.030568457630547 ], [ 76.912899783527436, 11.030680043140103 ], [ 76.913510580250815, 11.030790985650308 ], [ 76.914630498782572, 11.031013509242948 ], [ 76.915386454294193, 11.031109180578092 ], [ 76.915793063960152, 11.031092260050491 ], [ 76.915794737350382, 11.031350547157832 ], [ 76.915666428435998, 11.031724455104987 ], [ 76.91556986552672, 11.032514308624336 ], [ 76.915733733301678, 11.033144666775183 ], [ 76.9157804703392, 11.033632266792763 ], [ 76.915813891335475, 11.034306499278264 ], [ 76.915820122204437, 11.035267901050421 ], [ 76.91578203355246, 11.036114784172444 ], [ 76.915702415232872, 11.037277627072235 ], [ 76.915422045039563, 11.038843536227683 ], [ 76.915325761445644, 11.039676437657056 ], [ 76.915315328744668, 11.040307897843022 ], [ 76.915263552109508, 11.041284016392991 ], [ 76.915123505471584, 11.04208849499272 ], [ 76.915081789090991, 11.042375756270534 ], [ 76.91474807111166, 11.042435266876137 ], [ 76.91451007493778, 11.04314401505504 ], [ 76.91416377096094, 11.044175297105742 ], [ 76.914036294038482, 11.044678348912333 ], [ 76.913937310441241, 11.045095121273009 ], [ 76.913925853553408, 11.04556873958186 ], [ 76.913772951266978, 11.046631597318651 ], [ 76.9137197768639, 11.047392476969893 ], [ 76.913692027106833, 11.047593550722027 ], [ 76.914084971107258, 11.047705864117932 ], [ 76.914535739879781, 11.047774761454665 ], [ 76.914595797661903, 11.048075728622564 ], [ 76.914571305495713, 11.048779027077481 ], [ 76.914731556502119, 11.048849762225059 ], [ 76.914877281598407, 11.048920589217209 ], [ 76.914730638991088, 11.051091347888836 ], [ 76.914678472749245, 11.05186356966996 ], [ 76.914527901193509, 11.053285159306471 ], [ 76.914460762856891, 11.054132226255556 ], [ 76.914312456028455, 11.056457124079998 ], [ 76.913703306004351, 11.06226476176489 ], [ 76.913401666985507, 11.065621150618323 ], [ 76.913144943173194, 11.067592867189457 ], [ 76.91309941633159, 11.068704541114226 ], [ 76.913104540257592, 11.069493750997143 ], [ 76.913292184414374, 11.070425303051541 ], [ 76.913511721024236, 11.070675034484749 ], [ 76.914348658317707, 11.070920852178682 ], [ 76.915003541923241, 11.071096072744137 ], [ 76.915476604465866, 11.071236570622762 ], [ 76.916379179170022, 11.070405728236411 ], [ 76.916412463405138, 11.069939147402417 ], [ 76.916809155333851, 11.06950613478679 ], [ 76.916990275705956, 11.069433235992289 ], [ 76.916912273401948, 11.068608615828925 ], [ 76.917310596829168, 11.068426714569993 ], [ 76.917709620040966, 11.068352432109304 ], [ 76.918472516073805, 11.068383461716955 ], [ 76.918946275579913, 11.068631573795736 ], [ 76.919093880970067, 11.068989381272214 ], [ 76.919099021080953, 11.06977858836062 ], [ 76.919104628918802, 11.070639541498371 ], [ 76.919108835101326, 11.07128525631772 ], [ 76.91925761111635, 11.071822428603102 ], [ 76.919478789530586, 11.072323265900497 ], [ 76.919589145294211, 11.072537811403874 ], [ 76.919376147590313, 11.073292530508271 ], [ 76.919164084107493, 11.074190741756441 ], [ 76.919024188408358, 11.07501674517135 ], [ 76.919028396119344, 11.07566245983462 ], [ 76.919140857367154, 11.076199862599111 ], [ 76.919252150098359, 11.076557900090307 ], [ 76.919615566399983, 11.076591463400776 ], [ 76.919906580123978, 11.076661361342074 ], [ 76.920161509621749, 11.076767363053092 ], [ 76.920271166217773, 11.076874288865714 ], [ 76.920381524783551, 11.077088833637053 ], [ 76.920528669819149, 11.077374893223164 ], [ 76.920531009746739, 11.07773362322164 ], [ 76.920532881746823, 11.078020607213968 ], [ 76.920536391885847, 11.07855870218402 ], [ 76.920503934707341, 11.079150837783116 ], [ 76.922127879720932, 11.079403576972227 ], [ 76.923485958925866, 11.079729750758096 ], [ 76.922519025905871, 11.079975076194199 ], [ 76.917896788306308, 11.080363237845097 ], [ 76.917390039386632, 11.080629538620641 ], [ 76.917052933088229, 11.080918677172603 ], [ 76.916982164511921, 11.081206123244058 ], [ 76.917081351382919, 11.081564238473 ], [ 76.917205530145296, 11.082041776611634 ], [ 76.917522320137323, 11.082350675831094 ], [ 76.917838643244124, 11.082587828511622 ], [ 76.918565335340972, 11.082631040279638 ], [ 76.924012709006632, 11.082524596593474 ], [ 76.924350121449308, 11.082283281666374 ], [ 76.924566001447189, 11.081970993005914 ], [ 76.924661913221613, 11.08182688351468 ], [ 76.925050095642931, 11.081943988019816 ], [ 76.92563182204664, 11.082035940352345 ], [ 76.929167003597954, 11.082037270111142 ], [ 76.933112689645284, 11.08186851503922 ], [ 76.934012477258847, 11.082460651507279 ], [ 76.934280071547121, 11.082650264891976 ], [ 76.934740579728967, 11.082719060059377 ], [ 76.935151876819702, 11.08266858955392 ], [ 76.935731874165683, 11.082497455405138 ], [ 76.936130592348107, 11.082375316013128 ], [ 76.936205525603668, 11.082352361632445 ], [ 76.93652931011718, 11.0822531761485 ], [ 76.93814901933365, 11.081860116720311 ], [ 76.938708265891719, 11.082215264475815 ], [ 76.938689725110251, 11.083076362536854 ], [ 76.939301024605314, 11.083981243759924 ], [ 76.939567834863979, 11.084051276358064 ], [ 76.94128613191144, 11.083920641676391 ], [ 76.941697901402236, 11.083941907219462 ], [ 76.942062035150883, 11.084083059080255 ], [ 76.942425379837204, 11.084104635377667 ], [ 76.942909313025183, 11.084053686392551 ], [ 76.943538362537311, 11.083977885593525 ], [ 76.944313634087081, 11.08404463701992 ], [ 76.944579970702691, 11.084042920023078 ], [ 76.944800095328233, 11.084376324735288 ], [ 76.944972585983919, 11.084829616360389 ], [ 76.945312983659207, 11.08504266489042 ], [ 76.94577444429278, 11.085254931904064 ], [ 76.946307119206224, 11.085251494726348 ], [ 76.947904984562811, 11.085217262623868 ], [ 76.94861158090923, 11.085882344481107 ], [ 76.948853864414687, 11.08590469479795 ], [ 76.949459018559608, 11.08587686752726 ], [ 76.950069403565465, 11.086638230770696 ], [ 76.950264055229312, 11.08678046746542 ], [ 76.951014961645996, 11.086823441841766 ], [ 76.951233350484529, 11.086893776503125 ], [ 76.95140585257117, 11.087347062446868 ], [ 76.95160256791938, 11.087800191472665 ], [ 76.951847391902305, 11.08820517702855 ], [ 76.952068003937413, 11.088610319027733 ], [ 76.952287346725299, 11.08882414183781 ], [ 76.952626483249034, 11.088845861496432 ], [ 76.953207905485513, 11.08888992710348 ], [ 76.953571572352374, 11.08895931850331 ], [ 76.954080992130514, 11.089099512385145 ], [ 76.955029261255802, 11.089691261077716 ], [ 76.955368716463198, 11.089760807082154 ], [ 76.95602214197838, 11.089708736488115 ], [ 76.956288800010512, 11.089754837896669 ], [ 76.956411772676319, 11.090041029912641 ], [ 76.95641447729669, 11.090447581564939 ], [ 76.95634327082287, 11.090663286210063 ], [ 76.955835756444586, 11.090810074539069 ], [ 76.955521944058603, 11.090955605552365 ], [ 76.955256238978663, 11.091052992544062 ], [ 76.955016495505518, 11.091413285329944 ], [ 76.953863653187668, 11.092831796462923 ], [ 76.95379896063065, 11.094028009139844 ], [ 76.954312205328492, 11.094742156921926 ], [ 76.954873879088126, 11.095455989204583 ], [ 76.955021544248467, 11.095813768866858 ], [ 76.955169368913246, 11.096195463199251 ], [ 76.95529298074193, 11.096577314521916 ], [ 76.955390788553359, 11.096720174807663 ], [ 76.955657612269178, 11.096790190495428 ], [ 76.957086196709753, 11.096780914179837 ], [ 76.957522354341748, 11.096825912324549 ], [ 76.957668749096371, 11.096992371799173 ], [ 76.958098541044976, 11.09971598020679 ], [ 76.958148402463877, 11.09993089825932 ], [ 76.958415867072404, 11.100096569917312 ], [ 76.961296637034991, 11.099982162374982 ], [ 76.961455810143534, 11.099972848483699 ], [ 76.961756533554038, 11.099955251657004 ], [ 76.962168961169453, 11.100072143954906 ], [ 76.962484055872423, 11.100117922603967 ], [ 76.962896483843437, 11.100234813815588 ], [ 76.963140056792639, 11.100448467950086 ], [ 76.963335842312603, 11.100758096255245 ], [ 76.963556800845041, 11.101211054593792 ], [ 76.963655253540381, 11.101449569932855 ], [ 76.963729332972918, 11.101664328415593 ], [ 76.964143042584922, 11.101972534843672 ], [ 76.964532699326853, 11.102304813175861 ], [ 76.96470299447887, 11.102423280740426 ], [ 76.965501884343979, 11.102394151882834 ], [ 76.966543069866546, 11.102387354455004 ], [ 76.967245744838891, 11.102454511997665 ], [ 76.968263677332914, 11.102591354446645 ], [ 76.968991367600438, 11.102777922510544 ], [ 76.9696709520084, 11.103012634604617 ], [ 76.970132935442393, 11.103296600022741 ], [ 76.970690972020151, 11.10346035782003 ], [ 76.972701023832286, 11.103495027207787 ], [ 76.973330898906426, 11.103538731193487 ], [ 76.974321888171588, 11.103269163777963 ], [ 76.975411980849501, 11.103333761172422 ], [ 76.975751131474851, 11.103355451617547 ], [ 76.976717098332699, 11.102966463214301 ], [ 76.977855293815153, 11.102982905011746 ], [ 76.978532304965981, 11.102834964370288 ], [ 76.979257742075021, 11.102686704029791 ], [ 76.980124428660105, 11.101939625760814 ], [ 76.980215801401854, 11.101125897903648 ], [ 76.980845347198098, 11.101121757979078 ], [ 76.980932364738237, 11.099662340539835 ], [ 76.981295401041905, 11.099636037300211 ], [ 76.981537371406517, 11.099610530094882 ], [ 76.981632288651568, 11.099322919838039 ], [ 76.981986614143153, 11.098005237134151 ], [ 76.982034233721592, 11.097885346424366 ], [ 76.983657796028325, 11.098065983950947 ], [ 76.984748511356543, 11.098226208038536 ], [ 76.985475224316517, 11.098269250132565 ], [ 76.985571268358967, 11.098149039932903 ], [ 76.985779651341474, 11.09673665587624 ], [ 76.986529764941366, 11.096659964659231 ], [ 76.986779133849367, 11.094147201074705 ], [ 76.990531925623728, 11.094098520636745 ], [ 76.99036673747969, 11.091158020332152 ], [ 76.991092621556575, 11.091081480261067 ], [ 76.991721331792377, 11.090957749872423 ], [ 76.992228655849303, 11.090786989826684 ], [ 76.993342258053673, 11.090755712547164 ], [ 76.993372792759871, 11.091688208822521 ], [ 76.993494827215812, 11.091830893752501 ], [ 76.996426628894994, 11.092122387782455 ], [ 76.996147933706936, 11.093870050441037 ], [ 76.996197982504739, 11.094108871883915 ], [ 76.996780056790996, 11.094248507309228 ], [ 76.997725156333502, 11.094361819830327 ], [ 76.998282368603782, 11.094405955892405 ], [ 76.999323505087119, 11.094399050078751 ], [ 76.999564653765532, 11.094253958536735 ], [ 76.999678884082996, 11.093248760080343 ], [ 77.000841402839669, 11.09328887474952 ], [ 77.002052997205851, 11.093424319730527 ], [ 77.002392132915858, 11.093445981807827 ], [ 77.002619492753922, 11.094831553177045 ], [ 77.0028275322057, 11.096934708411602 ], [ 77.003132591497391, 11.099061132778765 ], [ 77.003258546708267, 11.099777750934688 ], [ 77.003501164419106, 11.099847882799043 ], [ 77.00415507448885, 11.099867447683462 ], [ 77.004906488477914, 11.099982022804941 ], [ 77.005343951842562, 11.100218262188784 ], [ 77.006555737539202, 11.100377597719225 ], [ 77.007428216990121, 11.100491359575475 ], [ 77.008616771611841, 11.100794331962254 ], [ 77.00883174408321, 11.100362426118515 ], [ 77.009268556020047, 11.100503003069949 ], [ 77.010793635787905, 11.100444994928123 ], [ 77.011497116528247, 11.100631618138667 ], [ 77.012200434100308, 11.100794325572011 ], [ 77.012394627932565, 11.10086477327879 ], [ 77.012774988093582, 11.099833883900638 ], [ 77.016552823673052, 11.099904275005979 ], [ 77.016296129068152, 11.099547268266786 ], [ 77.016039435126103, 11.099190261191625 ], [ 77.016398849921913, 11.098637810110876 ], [ 77.016956067056427, 11.098681909697193 ], [ 77.017464038138215, 11.098606763048426 ], [ 77.018116627041948, 11.098434986792638 ], [ 77.018767736389634, 11.098047984318477 ], [ 77.01927406218482, 11.09773369613567 ], [ 77.019780058093957, 11.097371579549019 ], [ 77.020456196885306, 11.097103981164842 ], [ 77.020939293220394, 11.096933336248533 ], [ 77.021422224393959, 11.096738776808969 ], [ 77.021712278836219, 11.096665085738911 ], [ 77.021882916683879, 11.096831345244983 ], [ 77.022057174556949, 11.097523708975915 ], [ 77.022109219430291, 11.098049488267778 ], [ 77.022186299975573, 11.0986946741147 ], [ 77.022263216524706, 11.099315946028554 ], [ 77.022698218915266, 11.09919345060522 ], [ 77.023254612648472, 11.099117969109509 ], [ 77.024220970711497, 11.098800582866506 ], [ 77.024946355537352, 11.098652218094896 ], [ 77.025526794525121, 11.098552656135308 ], [ 77.026180199911622, 11.098500432102949 ], [ 77.026304724957399, 11.099001806935522 ], [ 77.026428590865365, 11.099407526562141 ], [ 77.026479159940507, 11.099718079721704 ], [ 77.026601377062306, 11.099884661537237 ], [ 77.027497734825928, 11.099950373698087 ], [ 77.028491107597887, 11.100039344604065 ], [ 77.029727761705487, 11.100294076562458 ], [ 77.030648993386606, 11.100455270630494 ], [ 77.031475029162465, 11.100856251861501 ], [ 77.03201002015777, 11.101187449920619 ], [ 77.032374862578152, 11.101424135959983 ], [ 77.033173876595782, 11.101418742746672 ], [ 77.034455981408385, 11.101242680985361 ], [ 77.035665114891245, 11.101019277761367 ], [ 77.036438919126141, 11.100870558049657 ], [ 77.037938928815805, 11.100693008701992 ], [ 77.038567455699265, 11.100545266831782 ], [ 77.039099298236891, 11.100422093046884 ], [ 77.039462151711334, 11.100371806821112 ], [ 77.039922518530886, 11.100416518492555 ], [ 77.040503614944342, 11.100412582160526 ], [ 77.041036286464276, 11.100408972872886 ], [ 77.041203612981178, 11.100096948188893 ], [ 77.041250708469121, 11.099905311654664 ], [ 77.041443908335353, 11.099832258249918 ], [ 77.041661985047682, 11.099854694771199 ], [ 77.042026498869788, 11.100043540981773 ], [ 77.042512407106301, 11.100279392759983 ], [ 77.042925512778709, 11.100491822802264 ], [ 77.043870125529978, 11.100533243248412 ], [ 77.044596161663009, 11.100480486104413 ], [ 77.045467137875718, 11.100378913711872 ], [ 77.045975262356265, 11.100327633192077 ], [ 77.046360659685703, 11.100038039727252 ], [ 77.046892328973684, 11.099890939448205 ], [ 77.047302936637138, 11.099744661216137 ], [ 77.047349528065567, 11.099481284078731 ], [ 77.047736256022546, 11.099382996860664 ], [ 77.048074559360487, 11.099285038452949 ], [ 77.04819428649742, 11.099092907753416 ], [ 77.048214831439779, 11.098566647403532 ], [ 77.04818828582772, 11.098232023836047 ], [ 77.048479330504861, 11.0983017885385 ], [ 77.048649981880715, 11.098468030010741 ], [ 77.050077158210499, 11.098267004180077 ], [ 77.050923243613241, 11.098069928649416 ], [ 77.051746284249589, 11.098040409573104 ], [ 77.052495686268372, 11.097867902910002 ], [ 77.052413197051507, 11.096457508314376 ], [ 77.052334717158502, 11.095621034675512 ], [ 77.052180264102205, 11.094306787808302 ], [ 77.052292474486279, 11.093038553773637 ], [ 77.05238114112143, 11.091866138195797 ], [ 77.052473313100336, 11.091195903822836 ], [ 77.052590697793192, 11.090668984939034 ], [ 77.0523230376361, 11.090479491199744 ], [ 77.051934988558784, 11.090386474815686 ], [ 77.051619740510034, 11.090316876953823 ], [ 77.051426049730807, 11.090318195150878 ], [ 77.051607395733186, 11.088547284961219 ], [ 77.051605894484211, 11.088332064298404 ], [ 77.051335568790378, 11.087759954575505 ], [ 77.050968399917579, 11.087188503154875 ], [ 77.050747999310758, 11.086831283902532 ], [ 77.050818465240482, 11.086519915428887 ], [ 77.050937853266916, 11.086279957890012 ], [ 77.050936019394328, 11.086016910262588 ], [ 77.050861052514918, 11.085682616335484 ], [ 77.050629548086846, 11.085468959621101 ], [ 77.050398043991208, 11.085255302666113 ], [ 77.050129390665901, 11.084922325177715 ], [ 77.050128557514768, 11.084802758003407 ], [ 77.050563687265608, 11.084704141501033 ], [ 77.051072282789349, 11.084724597571423 ], [ 77.051265636489802, 11.084675453421513 ], [ 77.051359479001334, 11.084244353215496 ], [ 77.051453321347751, 11.083813253017784 ], [ 77.051690760856047, 11.08314203060522 ], [ 77.051902988411655, 11.082327492389634 ], [ 77.052011036875953, 11.080461422794768 ], [ 77.051934904474393, 11.079959735078454 ], [ 77.051426484118423, 11.079963192423119 ], [ 77.051160501904334, 11.080012829925934 ], [ 77.05108637070191, 11.079798102846127 ], [ 77.050819388872142, 11.079704259437944 ], [ 77.051011239916349, 11.079439895145732 ], [ 77.05125267795313, 11.079342595601156 ], [ 77.05125017844999, 11.078983894196408 ], [ 77.051126127235008, 11.078554275374728 ], [ 77.051123294852587, 11.078147747061786 ], [ 77.051120962385298, 11.077812959030636 ], [ 77.051118629992914, 11.077478170991592 ], [ 77.050993080791557, 11.076833331019056 ], [ 77.050991415044209, 11.076594196671572 ], [ 77.05152420655844, 11.076614489951304 ], [ 77.051595171014242, 11.076374861960902 ], [ 77.050999802390592, 11.074322255672131 ], [ 77.049522822820819, 11.074308372994389 ], [ 77.049520326587924, 11.073949671080227 ], [ 77.049589461976637, 11.073446995277004 ], [ 77.049634720149328, 11.072992310776035 ], [ 77.049560259901753, 11.07272975578924 ], [ 77.049485799826485, 11.07246720075619 ], [ 77.04936258739707, 11.072157147419757 ], [ 77.049385965417628, 11.072037415752597 ], [ 77.049843124101045, 11.071627764216036 ], [ 77.050325489906811, 11.071361428525638 ], [ 77.050783478493784, 11.071071343203007 ], [ 77.051073329806414, 11.070973716094999 ], [ 77.051289885593263, 11.070780928405707 ], [ 77.051701950820984, 11.070849872443848 ], [ 77.05208930667655, 11.070847240138756 ], [ 77.052355113987488, 11.07077368987056 ], [ 77.052352948301106, 11.070462815359988 ], [ 77.052594045661692, 11.07031768923871 ], [ 77.053077406097842, 11.070194830438242 ], [ 77.053414341407034, 11.06990556488396 ], [ 77.053751109348241, 11.069592385662061 ], [ 77.054160672016735, 11.069302625561038 ], [ 77.054546858006191, 11.069132596715034 ], [ 77.054884957939564, 11.069010723695135 ], [ 77.055246766665817, 11.068816945438243 ], [ 77.055657994839507, 11.068766317521561 ], [ 77.055972384759002, 11.068716348342964 ], [ 77.056163724617704, 11.06838024258872 ], [ 77.056403149212841, 11.06799598037593 ], [ 77.056739744649946, 11.067658885377648 ], [ 77.056980670244613, 11.067489843163761 ], [ 77.057294891420909, 11.06741595953274 ], [ 77.057561194541336, 11.067414145500967 ], [ 77.057827330629834, 11.067388417888301 ], [ 77.057995126212546, 11.067148129794303 ], [ 77.05825992583722, 11.066931095124106 ], [ 77.058549602495361, 11.066809548644446 ], [ 77.059321960815112, 11.066469481327314 ], [ 77.059708807684444, 11.066395100323708 ], [ 77.059998650147008, 11.066297465966366 ], [ 77.060215864677218, 11.066200326725653 ], [ 77.060312200099105, 11.06612792630759 ], [ 77.06052623795172, 11.065576434024877 ], [ 77.060740776721488, 11.065096681633879 ], [ 77.061004234690998, 11.064688338799392 ], [ 77.061194730394519, 11.06423266476609 ], [ 77.061361183816771, 11.063801069178712 ], [ 77.061407762450585, 11.06353769254607 ], [ 77.061792597658439, 11.063176350124527 ], [ 77.062297974700371, 11.062742441367298 ], [ 77.062585303049119, 11.062286106064912 ], [ 77.062776129855123, 11.061878258244908 ], [ 77.062847752531553, 11.061734282782972 ], [ 77.063163136553271, 11.061827787306353 ], [ 77.063476177731943, 11.061586505683582 ], [ 77.063981214704128, 11.061104768473777 ], [ 77.064196415069205, 11.060720668132893 ], [ 77.064627818844102, 11.060095946798203 ], [ 77.065132851472413, 11.059614208415374 ], [ 77.065781123844005, 11.058844517877048 ], [ 77.065779951368199, 11.058677125198011 ], [ 77.065633360328874, 11.058486811937051 ], [ 77.065341853372971, 11.058345317566477 ], [ 77.065075224885163, 11.058299310480672 ], [ 77.064687553885463, 11.058254129960787 ], [ 77.064347797827153, 11.058136878476953 ], [ 77.064295866193532, 11.057635030594431 ], [ 77.064262788356771, 11.056367792837021 ], [ 77.06411569762183, 11.056105738622392 ], [ 77.063919688627891, 11.055772274993574 ], [ 77.063844219733042, 11.055366245104604 ], [ 77.063769420246928, 11.055055868254279 ], [ 77.063695959109097, 11.05493679757207 ], [ 77.063234329909889, 11.05470080374905 ], [ 77.062675701253113, 11.054441556372375 ], [ 77.062093032340442, 11.054206386176725 ], [ 77.061824736665955, 11.053921242376035 ], [ 77.061579814318961, 11.05351636664018 ], [ 77.061311185711162, 11.053183395537257 ], [ 77.06135325431282, 11.05227435948631 ], [ 77.061373954646314, 11.05177201482196 ], [ 77.061443071044124, 11.051269340165552 ], [ 77.061464940637322, 11.050934388727621 ], [ 77.061463938491059, 11.050790908821812 ], [ 77.061799341758785, 11.050286419192437 ], [ 77.062205195686488, 11.049470561276269 ], [ 77.062348604858528, 11.049206524686813 ], [ 77.062539593963237, 11.048822591454057 ], [ 77.062658961936648, 11.048582633163029 ], [ 77.063042423045161, 11.044562392521811 ], [ 77.063151933590774, 11.042911549449192 ], [ 77.063144584301028, 11.041859364006354 ], [ 77.063033226853435, 11.039779566027041 ], [ 77.063121205146501, 11.038511500716149 ], [ 77.063142072760115, 11.038033069531954 ], [ 77.06306661393738, 11.037627037996469 ], [ 77.062379309760985, 11.036268595564383 ], [ 77.062112368141968, 11.036174755469295 ], [ 77.060511888180969, 11.035779102792585 ], [ 77.059929093153812, 11.035520007859624 ], [ 77.059492538976926, 11.035403404258481 ], [ 77.059031778321568, 11.035286964533363 ], [ 77.058256164080348, 11.035148749365419 ], [ 77.057598420998616, 11.034555355230466 ], [ 77.057233656507819, 11.034318687575366 ], [ 77.056843521178436, 11.033914789850655 ], [ 77.056357392200056, 11.033631115858222 ], [ 77.056089955091991, 11.033465529385548 ], [ 77.055701817814693, 11.033348590871801 ], [ 77.05538696561554, 11.033326812822594 ], [ 77.055120027913858, 11.033232965665926 ], [ 77.054805175771207, 11.033211186981557 ], [ 77.054465286082376, 11.033070004878521 ], [ 77.054101356214161, 11.032952899931386 ], [ 77.053906540458527, 11.032786818765608 ], [ 77.049307115792601, 11.03279405346569 ], [ 77.049063888987604, 11.032628296179738 ], [ 77.049105507136261, 11.031647513844366 ], [ 77.049074340427339, 11.030643309079421 ], [ 77.049093410040342, 11.029901825743901 ], [ 77.049111320078936, 11.028992947623678 ], [ 77.049107012341537, 11.028371195615698 ], [ 77.049129230519668, 11.028084069471232 ], [ 77.049248273716955, 11.027796288637951 ], [ 77.049216612347408, 11.026720343043106 ], [ 77.048996437884796, 11.02638702627425 ], [ 77.04899643788481, 11.02638702627425 ], [ 77.049283432743991, 11.025882878165548 ], [ 77.051437276212312, 11.025796565049028 ], [ 77.051751623195941, 11.025746608195682 ], [ 77.052156325016824, 11.024763369102814 ], [ 77.053938243788608, 11.019920551753952 ], [ 77.054712130336952, 11.016328120212666 ], [ 77.054948540080815, 11.015513422663869 ], [ 77.055255074767985, 11.014339531213606 ], [ 77.056214477537608, 11.013065558212162 ], [ 77.057128950385675, 11.012294094032518 ], [ 77.057680512578202, 11.011549003222655 ], [ 77.058209362713683, 11.011019296884827 ], [ 77.058280647753449, 11.010827497012967 ], [ 77.058206538311538, 11.010612768577856 ], [ 77.058010907169475, 11.01032712042616 ], [ 77.058296047106154, 11.009559921105783 ], [ 77.058484367652625, 11.008793378299226 ], [ 77.058625773783675, 11.008242384636654 ], [ 77.058838962240486, 11.007571331427952 ], [ 77.058980201372478, 11.006996424358611 ], [ 77.059145478355759, 11.00639743972852 ], [ 77.059163867673846, 11.005560305773008 ], [ 77.059181260577631, 11.00457969124334 ], [ 77.059333746012939, 11.002139373013414 ], [ 77.059355873796605, 11.001840291079464 ], [ 77.055386003721011, 11.002266094502193 ], [ 77.049110454880662, 11.003311718362628 ], [ 77.048929752373894, 11.006584467668249 ], [ 77.04892975237388, 11.006584467668233 ], [ 77.049110454880648, 11.003311718362605 ], [ 77.055386003721011, 11.002266094502174 ], [ 77.059355873796605, 11.001840291079446 ], [ 77.059378001591085, 11.001541209146422 ], [ 77.059518408447573, 11.000846735192265 ], [ 77.059658150564161, 11.000056607563282 ], [ 77.059655825316142, 10.99972181961194 ], [ 77.059506616825843, 10.99914888186758 ], [ 77.05896417344114, 10.997717684754845 ], [ 77.058753629717415, 10.997198262624718 ], [ 77.058507112968471, 10.99655423930462 ], [ 77.058358573019845, 10.996076953999269 ], [ 77.058161460803788, 10.995576082898941 ], [ 77.057988221073387, 10.995027220727614 ], [ 77.057910468846032, 10.994286395146448 ], [ 77.057856091444236, 10.99342583827119 ], [ 77.057852277132071, 10.992875828624861 ], [ 77.057822435751689, 10.992062934684235 ], [ 77.057091201046234, 10.991326531099993 ], [ 77.055580005243726, 10.989806216834774 ], [ 77.054824413171687, 10.989046055783 ], [ 77.053828780749015, 10.988574489205249 ], [ 77.053197849219771, 10.9883396032722 ], [ 77.052493978938756, 10.988057378810582 ], [ 77.050924585621857, 10.988618004876631 ], [ 77.048786961233816, 10.987508422634976 ], [ 77.048276059128384, 10.987129228390403 ], [ 77.047521644840259, 10.986536439860654 ], [ 77.046937972348942, 10.986133817893561 ], [ 77.046792095666902, 10.986039140590798 ], [ 77.046694459989951, 10.985920223842175 ], [ 77.045945983253631, 10.986188321756414 ], [ 77.045117319730565, 10.985356877675839 ], [ 77.044850264997265, 10.98523909919245 ], [ 77.04448623444253, 10.985098057464288 ], [ 77.043855643811028, 10.984910976800041 ], [ 77.043565209787076, 10.98491292809234 ], [ 77.042190910060043, 10.985687431692364 ], [ 77.040982355179935, 10.986343366713902 ], [ 77.040779247254889, 10.98637342737976 ], [ 77.040532080834893, 10.986332038996911 ], [ 77.03807513722505, 10.985946742649549 ], [ 77.037857310164725, 10.985948202142925 ], [ 77.03759532690313, 10.985863863726966 ], [ 77.037174194550033, 10.985866684588592 ], [ 77.037086473107422, 10.985781178512184 ], [ 77.036921320106771, 10.984993093240714 ], [ 77.036771674112984, 10.984348393217646 ], [ 77.036712898360022, 10.984248344190988 ], [ 77.035754562082758, 10.984269107812228 ], [ 77.035566271151637, 10.984342112519185 ], [ 77.035262986075082, 10.984588073876441 ], [ 77.035074498129774, 10.984632381753453 ], [ 77.03351526486405, 10.983853616066121 ], [ 77.033369458028247, 10.983768496878962 ], [ 77.0324109247574, 10.983760553093935 ], [ 77.032250792806792, 10.983704226953305 ], [ 77.031169510831802, 10.982735717352446 ], [ 77.030920875865505, 10.982479095416673 ], [ 77.030687547750333, 10.982337162936076 ], [ 77.030527612945733, 10.982309532354998 ], [ 77.029438877669705, 10.982374192248061 ], [ 77.029307888228871, 10.982332018939825 ], [ 77.028710048312604, 10.981977280656356 ], [ 77.028579059103549, 10.98193510698345 ], [ 77.028404406868376, 10.981878875321243 ], [ 77.027184486364476, 10.981872656374073 ], [ 77.027025237184375, 10.981945462404395 ], [ 77.026634325753051, 10.982120254627471 ], [ 77.024478216050696, 10.983253833257235 ], [ 77.024362041691447, 10.983254606294826 ], [ 77.024058844019265, 10.983514906335159 ], [ 77.023259850983337, 10.983477173906055 ], [ 77.022910447819157, 10.983350355931968 ], [ 77.022515720784753, 10.982965555842087 ], [ 77.022368548907096, 10.982679553051424 ], [ 77.021811837807022, 10.981965800002348 ], [ 77.021608435567643, 10.981952802438057 ], [ 77.021143446404139, 10.98191284432699 ], [ 77.020911000629098, 10.981900039206325 ], [ 77.020736739495348, 10.981901196562871 ], [ 77.019971379141751, 10.982537637855796 ], [ 77.019753844824919, 10.98258212923481 ], [ 77.019376619291492, 10.982634854947785 ], [ 77.01899939354081, 10.982687580216252 ], [ 77.014908635917749, 10.98122239059326 ], [ 77.014675995476878, 10.981180883610339 ], [ 77.014370843454884, 10.981154205584803 ], [ 77.014008285226481, 10.981228351079203 ], [ 77.013486278729516, 10.981346598676298 ], [ 77.012616623080504, 10.981596287318148 ], [ 77.011370077756766, 10.981948909359092 ], [ 77.011196301303698, 10.982021803788207 ], [ 77.011050985621225, 10.982008415127659 ], [ 77.010832963533801, 10.981981157747727 ], [ 77.010396239640869, 10.98182620290584 ], [ 77.008635213873234, 10.981263866422665 ], [ 77.008475473631819, 10.981264920834295 ], [ 77.008344486049424, 10.98122273787698 ], [ 77.008212528540454, 10.981037069525478 ], [ 77.007787516481486, 10.980465907028471 ], [ 77.007699706880146, 10.980366042120517 ], [ 77.007641134859384, 10.980294682648738 ], [ 77.007423210880503, 10.980281771084657 ], [ 77.006928694122578, 10.980170239289048 ], [ 77.00644869939886, 10.980058610878633 ], [ 77.006216253691377, 10.980045794154007 ], [ 77.005853014868407, 10.980019490166136 ], [ 77.005650097055451, 10.980078224348974 ], [ 77.005503910419932, 10.979935695801847 ], [ 77.004903772123882, 10.979236539240134 ], [ 77.004640250472505, 10.978922592615293 ], [ 77.004508489862786, 10.978765619178272 ], [ 77.004246033662227, 10.978609506330958 ], [ 77.004041761455269, 10.978467359320632 ], [ 77.003794214486348, 10.9783685446743 ], [ 77.003648319818453, 10.978269060643408 ], [ 77.003401450259489, 10.978270685671569 ], [ 77.003125730625825, 10.978301198804267 ], [ 77.002922426198722, 10.978302536732219 ], [ 77.002820580555991, 10.978274508478652 ], [ 77.002586105283498, 10.977960368409217 ], [ 77.002337688901278, 10.977732415122976 ], [ 77.002249785147441, 10.977618199570866 ], [ 77.002219968317576, 10.977503601901953 ], [ 77.002218711572226, 10.977317070238854 ], [ 77.002230236491513, 10.976872168439726 ], [ 77.002200226463998, 10.976728873568588 ], [ 77.002156081458608, 10.9766430685617 ], [ 77.002053559839581, 10.976514599793877 ], [ 77.001292249597967, 10.975601254772455 ], [ 77.000457949995464, 10.974630989614738 ], [ 76.999740793584664, 10.973803444364863 ], [ 76.998676668158708, 10.973207762392853 ], [ 76.998414026656235, 10.973022945804885 ], [ 76.99831179729108, 10.972937521127962 ], [ 76.998152156946446, 10.972952917966799 ], [ 76.997572163440765, 10.973085866647434 ], [ 76.997296639768749, 10.973145071039829 ], [ 76.996992169227994, 10.973218814312464 ], [ 76.996861764400009, 10.973262717321624 ], [ 76.996530852244121, 10.973724063993449 ], [ 76.995868350654405, 10.974546316222884 ], [ 76.995751888645572, 10.974504031796435 ], [ 76.995589261030943, 10.974074619289965 ], [ 76.995354026055665, 10.97364568241462 ], [ 76.995190725603223, 10.973115828902881 ], [ 76.99499847909415, 10.972600514112202 ], [ 76.994850856901905, 10.972242748951507 ], [ 76.994747954803898, 10.972056882225692 ], [ 76.994573311611106, 10.972000628946612 ], [ 76.992506063305356, 10.971239298768856 ], [ 76.992258621079728, 10.971154821644921 ], [ 76.992040990942442, 10.97118494381337 ], [ 76.991779988464828, 10.971244048119358 ], [ 76.990229740707491, 10.971785107834867 ], [ 76.990041056706829, 10.971800690184143 ], [ 76.989924116132613, 10.971686659672594 ], [ 76.989688507010712, 10.971200321771265 ], [ 76.989452610780958, 10.970670937414464 ], [ 76.989292298423891, 10.97058588850952 ], [ 76.989189688169517, 10.970443065307819 ], [ 76.989217771315921, 10.970299388525122 ], [ 76.98925932012007, 10.969997781091537 ], [ 76.989286923325594, 10.96978236076089 ], [ 76.989358474766149, 10.969624050754067 ], [ 76.989517154745215, 10.969465171674438 ], [ 76.989588514026678, 10.969278164229136 ], [ 76.989748921666802, 10.969377561799906 ], [ 76.990113973673076, 10.969676512926471 ], [ 76.990825716101654, 10.969700560520263 ], [ 76.991624779099084, 10.969752734125416 ], [ 76.992524819016182, 10.969703799876729 ], [ 76.9930619190812, 10.969671587342877 ], [ 76.993772217579291, 10.96948039793719 ], [ 76.994382597226846, 10.969548148573425 ], [ 76.995413423336245, 10.969512698890085 ], [ 76.995834158225051, 10.969452545272699 ], [ 76.99686469392249, 10.969374044829129 ], [ 76.99770558345034, 10.969167641379677 ], [ 76.998111988290106, 10.969136277279951 ], [ 76.998519067885425, 10.96920535306111 ], [ 76.999203403386488, 10.969473498294317 ], [ 76.999961215117949, 10.969870302591005 ], [ 77.000835103067303, 10.970251992905949 ], [ 77.00090529634214, 10.96989280073524 ], [ 77.001017991553439, 10.969375487704461 ], [ 77.001100292355673, 10.968657484968734 ], [ 77.001702751033932, 10.967548635495474 ], [ 77.001947197725073, 10.967188298377538 ], [ 77.002119520768645, 10.966900181292452 ], [ 77.002190002095972, 10.966584034963486 ], [ 77.002231730721462, 10.966311125289444 ], [ 77.002431067250228, 10.96572149673484 ], [ 77.00257318796892, 10.965261387279897 ], [ 77.002845128858098, 10.96467128151215 ], [ 77.003003315227829, 10.964440654109277 ], [ 77.003233237228869, 10.964080412059889 ], [ 77.003087157391818, 10.963952229216302 ], [ 77.002941657189979, 10.9639101378544 ], [ 77.002940981093232, 10.963809697683587 ], [ 77.003026851673965, 10.963622593306605 ], [ 77.003137321152124, 10.962775262674873 ], [ 77.003217879316267, 10.961798985583536 ], [ 77.00328874552153, 10.961540233699596 ], [ 77.003345090730022, 10.961281577252448 ], [ 77.003416053359743, 10.961037173966226 ], [ 77.003573851456551, 10.960749152261101 ], [ 77.003946081256132, 10.959957498081547 ], [ 77.002736410252581, 10.959305382592845 ], [ 77.002648899209532, 10.95924856050574 ], [ 77.002647837392701, 10.9590907258748 ], [ 77.002846977723948, 10.958472400580208 ], [ 77.003088328153709, 10.957652908696058 ], [ 77.003157359953775, 10.957121533528353 ], [ 77.003241684635924, 10.956704851781076 ], [ 77.003413229727542, 10.956301946278721 ], [ 77.003583229742475, 10.955669463187757 ], [ 77.003582264326738, 10.955525977208467 ], [ 77.003523216437557, 10.955382872805711 ], [ 77.002776778221531, 10.954512472014134 ], [ 77.002045154402126, 10.953685019110916 ], [ 77.001458739928779, 10.952856610995619 ], [ 77.001224001592661, 10.952499419741953 ], [ 77.001106777241986, 10.952342346941379 ], [ 77.001047731364508, 10.952199241710082 ], [ 77.00101782290497, 10.952070294590689 ], [ 77.001060613250743, 10.951955219863187 ], [ 77.001029740989665, 10.951682786499576 ], [ 77.001263738295023, 10.947606062853394 ], [ 77.001276138703432, 10.947290297864786 ], [ 77.001216323383318, 10.947032403445741 ], [ 77.001157086278312, 10.946860600757852 ], [ 77.001083232696587, 10.946674544619002 ], [ 77.000950913049834, 10.946431474708081 ], [ 77.000848404644799, 10.946303003372096 ], [ 77.000672813758996, 10.946103264723774 ], [ 77.000468279044327, 10.945918064898921 ], [ 77.000263744580067, 10.945732864890026 ], [ 76.999796884537204, 10.945405890767246 ], [ 76.999592543330451, 10.945249387452366 ], [ 76.999431377813679, 10.945035204056573 ], [ 76.999255981104511, 10.944864161570115 ], [ 76.999094816056086, 10.944649977912116 ], [ 76.998977404078673, 10.944464206177717 ], [ 76.998961344464789, 10.944234722873905 ], [ 76.998945284907364, 10.944005239561667 ], [ 76.998837583248886, 10.943101940076833 ], [ 76.9987923876986, 10.942858298185275 ], [ 76.99858727941259, 10.942587004540023 ], [ 76.998381498322701, 10.942215270093083 ], [ 76.998249471793059, 10.942015244179524 ], [ 76.99811744545454, 10.941815218175215 ], [ 76.997884452290762, 10.941716297772047 ], [ 76.997811275426898, 10.94163068083075 ], [ 76.997618670331946, 10.941057969265763 ], [ 76.997513858651288, 10.940585128222978 ], [ 76.99744000944861, 10.940399070455866 ], [ 76.997424240106682, 10.940212632766666 ], [ 76.997379815359722, 10.940083779679066 ], [ 76.997058166848205, 10.939755849433215 ], [ 76.996853158648435, 10.939498902589015 ], [ 76.996648438999117, 10.939285001563642 ], [ 76.996458143487459, 10.939056656753507 ], [ 76.996283040434875, 10.938928657608711 ], [ 76.996221887769877, 10.938469879520774 ], [ 76.996089096439661, 10.938155062638515 ], [ 76.995941785604373, 10.937840340525472 ], [ 76.995560238142829, 10.937240162438915 ], [ 76.99519522747066, 10.936941211223559 ], [ 76.99480041035072, 10.936527659530153 ], [ 76.994610405996781, 10.936342359055248 ], [ 76.994507232688179, 10.936113443545871 ], [ 76.994417716015192, 10.935755294904283 ], [ 76.994358198254616, 10.935540443599711 ], [ 76.99432781597389, 10.935339751397594 ], [ 76.994180796483832, 10.935068073908248 ], [ 76.99415022262302, 10.934838684252577 ], [ 76.994060802911775, 10.934494884037134 ], [ 76.993972630002077, 10.934337616883923 ], [ 76.991717826969889, 10.931539851750554 ], [ 76.991541868762752, 10.931282710155742 ], [ 76.991439274493999, 10.931139885182603 ], [ 76.99130821562305, 10.93108334173759 ], [ 76.991103793305101, 10.930912481360725 ], [ 76.990870140732454, 10.930713112500483 ], [ 76.99057898450333, 10.930600214082315 ], [ 76.990447734616453, 10.930514972722269 ], [ 76.990360043372107, 10.930429447634655 ], [ 76.990257449964901, 10.930286622106081 ], [ 76.990183991354087, 10.930157956179992 ], [ 76.990153995668351, 10.930014657866179 ], [ 76.9901527520299, 10.92982812424645 ], [ 76.990195162540743, 10.929655655750294 ], [ 76.990266803309993, 10.929511695653122 ], [ 76.990149786521386, 10.929383313297352 ], [ 76.989623355686149, 10.928827115028762 ], [ 76.989506435074176, 10.928713081072122 ], [ 76.989505383233862, 10.928555244856756 ], [ 76.989488664558763, 10.928225318167247 ], [ 76.98948789962418, 10.92811052818772 ], [ 76.989385498799408, 10.927996399629683 ], [ 76.989268674248464, 10.927896714252757 ], [ 76.98788350207623, 10.927030412267516 ], [ 76.987766391791695, 10.926887679864826 ], [ 76.987678415878548, 10.926759107372739 ], [ 76.987690833885296, 10.926443340155672 ], [ 76.98768777747263, 10.925984179675236 ], [ 76.987699336012952, 10.925539273560757 ], [ 76.98769503831754, 10.924893579096317 ], [ 76.987693796811257, 10.924707045134511 ], [ 76.987692650825423, 10.924534859936884 ], [ 76.987691600355248, 10.924377023503947 ], [ 76.987618049161242, 10.924234007697308 ], [ 76.986566650450214, 10.923336827634802 ], [ 76.986245605645735, 10.923094973086188 ], [ 76.986055520301406, 10.922895315919572 ], [ 76.985967546522716, 10.92276674256787 ], [ 76.985937458771659, 10.922609094505981 ], [ 76.985993913735058, 10.922364788076536 ], [ 76.986064887798506, 10.92212038737072 ], [ 76.986134621596904, 10.921689452489431 ], [ 76.986132999854618, 10.921445523179175 ], [ 76.986132141300729, 10.921316384130883 ], [ 76.986116668252762, 10.921172990571646 ], [ 76.986000038421523, 10.921102000812358 ], [ 76.985753404289696, 10.92113230082596 ], [ 76.984983700431798, 10.921108597819048 ], [ 76.984852456373588, 10.921023352993297 ], [ 76.984545648626934, 10.920738355342557 ], [ 76.984500852282451, 10.920552103549197 ], [ 76.984470956325936, 10.920423152743894 ], [ 76.984557213072634, 10.920293448418516 ], [ 76.984686741034082, 10.920120415103046 ], [ 76.984758383229419, 10.919976456148689 ], [ 76.984771472554499, 10.919761130003181 ], [ 76.984784943144575, 10.919603199044033 ], [ 76.984740528197392, 10.919474342457592 ], [ 76.984637179414577, 10.919216723428804 ], [ 76.984578245590583, 10.919087960979383 ], [ 76.984461235750345, 10.918959575217277 ], [ 76.984300383118693, 10.918788425491435 ], [ 76.984154716608614, 10.918717623109648 ], [ 76.983718765229725, 10.918663052348581 ], [ 76.982789167403027, 10.91861168051455 ], [ 76.982672539245101, 10.918540689160681 ], [ 76.982511782932917, 10.91838388708784 ], [ 76.982336317418387, 10.918198481330023 ], [ 76.981766460413667, 10.917656894148845 ], [ 76.981620699743729, 10.917571741526887 ], [ 76.981460229903533, 10.917457985186569 ], [ 76.981242159925188, 10.91741634893048 ], [ 76.981139766160197, 10.9173022163395 ], [ 76.98108035867709, 10.917101708714588 ], [ 76.981020475750043, 10.916829456901793 ], [ 76.980961353806876, 10.916671995715495 ], [ 76.980873669571579, 10.916586466644107 ], [ 76.980858389849047, 10.916471769959527 ], [ 76.980755426047168, 10.916271544142317 ], [ 76.980638038572494, 10.916085761070043 ], [ 76.980477569914115, 10.915972003998489 ], [ 76.980462100267431, 10.915828609582105 ], [ 76.980330289349283, 10.915657269120961 ], [ 76.980213377711053, 10.915543229991465 ], [ 76.98008213737856, 10.915457982422245 ], [ 76.979921574217016, 10.91532987611556 ], [ 76.979790429085739, 10.915258977233272 ], [ 76.979789478734602, 10.915115488790503 ], [ 76.979481636809027, 10.9146726467268 ], [ 76.979334833124568, 10.914429655293896 ], [ 76.979030032357386, 10.914445975770576 ], [ 76.977665449936268, 10.914483495161676 ], [ 76.977609367924501, 10.914785196557347 ], [ 76.977685759627633, 10.915358681980873 ], [ 76.977687563429328, 10.915631310364601 ], [ 76.977297261189094, 10.91589212299958 ], [ 76.976590008487889, 10.916528069191958 ], [ 76.976475469835066, 10.916772750244057 ], [ 76.976463418023314, 10.917145914683232 ], [ 76.976450701998203, 10.917418637020289 ], [ 76.976117239017881, 10.917492538211288 ], [ 76.97559464901849, 10.917510262274972 ], [ 76.975072627777436, 10.917614078754752 ], [ 76.974768865781627, 10.917788233329501 ], [ 76.974450205123745, 10.917905085802515 ], [ 76.974247412294602, 10.917978141871952 ], [ 76.974000493450276, 10.917965385490582 ], [ 76.973782802263358, 10.917981139373994 ], [ 76.973580862012554, 10.918183335097705 ], [ 76.972988800812715, 10.9186750369088 ], [ 76.972946380354998, 10.918847504598503 ], [ 76.972963362753603, 10.919220482370996 ], [ 76.972922173927969, 10.919579485767274 ], [ 76.972938114273163, 10.919794625628169 ], [ 76.972808483977204, 10.919953306232935 ], [ 76.972548749324986, 10.920198922832279 ], [ 76.97224460417344, 10.920315679966174 ], [ 76.971591619127707, 10.920377287259946 ], [ 76.971170372901781, 10.92035130288262 ], [ 76.970748274829262, 10.920196177648894 ], [ 76.970282430273599, 10.920012634449881 ], [ 76.969904174334246, 10.91990027412537 ], [ 76.969511399412994, 10.919788006756459 ], [ 76.968755455852033, 10.919649377094064 ], [ 76.968333643069158, 10.919537294947572 ], [ 76.968042692205003, 10.919453069468346 ], [ 76.967795865999307, 10.919454657187352 ], [ 76.967578456088077, 10.919513453735961 ], [ 76.967419689746194, 10.919657970345481 ], [ 76.967304291928059, 10.91977350889727 ], [ 76.967146658965405, 10.920090212803961 ], [ 76.967004017297356, 10.920478568073698 ], [ 76.966919452401029, 10.920866549898665 ], [ 76.966921530725827, 10.921182226811004 ], [ 76.966966978052298, 10.921468925718134 ], [ 76.967012236553686, 10.921726926700144 ], [ 76.967013842731674, 10.921970858832996 ], [ 76.966898632949935, 10.922115095297142 ], [ 76.966638890976981, 10.922360708014333 ], [ 76.966291654628094, 10.922549484843342 ], [ 76.965973739839328, 10.922781121563348 ], [ 76.965655730104146, 10.922998409075328 ], [ 76.965424458569984, 10.923157740648577 ], [ 76.965105220752633, 10.923188491189014 ], [ 76.964801068533788, 10.923305241929473 ], [ 76.964336541936618, 10.923322575500542 ], [ 76.964119128225221, 10.923381370181644 ], [ 76.963815446975403, 10.923569864915617 ], [ 76.963685621183672, 10.923699844789594 ], [ 76.963571163723259, 10.92395887219319 ], [ 76.96349988714077, 10.924160224001445 ], [ 76.963442941286004, 10.924332784628328 ], [ 76.963298406907313, 10.924434159684816 ], [ 76.962994158167632, 10.924536559979288 ], [ 76.96266124738699, 10.924696542322536 ], [ 76.96248795640183, 10.924841150406026 ], [ 76.96208320157865, 10.925116390043192 ], [ 76.961938572024565, 10.925203415607719 ], [ 76.961794130900515, 10.925319139099631 ], [ 76.961489315048411, 10.925335444175756 ], [ 76.961126515201457, 10.925366470446081 ], [ 76.96083565339373, 10.925296587767448 ], [ 76.960312479122535, 10.925228194203086 ], [ 76.959934688638697, 10.925187567105564 ], [ 76.959716424769866, 10.925117217953272 ], [ 76.959512774662372, 10.925061124594684 ], [ 76.959367955881135, 10.925119451043905 ], [ 76.95925236439416, 10.925206289396908 ], [ 76.959123947695332, 10.925551502993025 ], [ 76.959039654304718, 10.925982531582179 ], [ 76.958867772493903, 10.926342373261736 ], [ 76.958738507932026, 10.92655844568967 ], [ 76.958580015710353, 10.926746006086752 ], [ 76.958392672249673, 10.926962450484774 ], [ 76.958175536400546, 10.927064288646323 ], [ 76.957769268580577, 10.927109939361987 ], [ 76.957142777359195, 10.927121889065617 ], [ 76.956636829566364, 10.927131538586663 ], [ 76.956361238047805, 10.927176351134632 ], [ 76.955970805031654, 10.927422793166837 ], [ 76.954653177220521, 10.927990856741262 ], [ 76.954464702657617, 10.928035110724695 ], [ 76.954247000719818, 10.928050852134046 ], [ 76.953956324453756, 10.928009661202683 ], [ 76.953767380203274, 10.927982169488612 ], [ 76.953549114848997, 10.927911816044256 ], [ 76.953461714845773, 10.927869325557609 ], [ 76.953258438700942, 10.927870624408563 ], [ 76.953041018256783, 10.927929412140124 ], [ 76.95283868056589, 10.928074201373249 ], [ 76.952607678553974, 10.928276572259678 ], [ 76.952303608242474, 10.92840766133342 ], [ 76.952057335230535, 10.928495332064557 ], [ 76.951825206572849, 10.928525513619052 ], [ 76.95167982126101, 10.92849774251164 ], [ 76.951461555737353, 10.928427387558068 ], [ 76.95124225870795, 10.928199192562444 ], [ 76.95109621716206, 10.928070977578008 ], [ 76.950936593623183, 10.92808634598005 ], [ 76.950690414016833, 10.928188364718009 ], [ 76.950516176847685, 10.928189476480251 ], [ 76.950211355486573, 10.928205770913445 ], [ 76.949877775638413, 10.928265297546869 ], [ 76.949659885307909, 10.928252337572577 ], [ 76.949442557132599, 10.928325472005767 ], [ 76.949138672191054, 10.92848525636999 ], [ 76.948762281540596, 10.928659852411034 ], [ 76.94842851333506, 10.928690679392036 ], [ 76.94803675937915, 10.92873622524947 ], [ 76.947702897260555, 10.928752702356354 ], [ 76.947426833517994, 10.928725761772906 ], [ 76.947093345601388, 10.928799634673123 ], [ 76.946760980310884, 10.929045696637905 ], [ 76.946486226056692, 10.929219642900602 ], [ 76.946341869534493, 10.929349709546106 ], [ 76.946109458254725, 10.929336839603549 ], [ 76.945790488967802, 10.929410618807761 ], [ 76.945473202735087, 10.929742681994178 ], [ 76.94522898285399, 10.930146028580809 ], [ 76.945041626562897, 10.93036246678038 ], [ 76.945028415657859, 10.930563447003045 ], [ 76.94500115233383, 10.930836265278765 ], [ 76.944987380414346, 10.930951150722123 ], [ 76.944783353198233, 10.930837651245717 ], [ 76.944550379721932, 10.930738685502126 ], [ 76.944202274966869, 10.930798298989249 ], [ 76.944057729699523, 10.930899666568548 ], [ 76.943752904108791, 10.930915955089752 ], [ 76.943419785938318, 10.931047221118375 ] ], [ [ 76.989662647199879, 11.017986271633488 ], [ 76.989659042747775, 11.017994951397741 ], [ 76.989621359709403, 11.01795821387357 ], [ 76.989662647199879, 11.017986271633488 ] ], [ [ 77.039294439759814, 11.013643625114906 ], [ 77.041087464798508, 11.012493225397336 ], [ 77.042778854083025, 11.012051378697368 ], [ 77.044082956637297, 11.011612132139529 ], [ 77.045966321579115, 11.010929828961554 ], [ 77.04688495179461, 11.010756231998423 ], [ 77.047373177813711, 11.009015136809044 ], [ 77.047373177813725, 11.009015136809047 ], [ 77.046884951794624, 11.010756231998451 ], [ 77.045966321579115, 11.010929828961581 ], [ 77.044082956637297, 11.011612132139536 ], [ 77.042778854083039, 11.012051378697366 ], [ 77.041087464798522, 11.01249322539736 ], [ 77.039294439759814, 11.013643625114907 ], [ 77.031741593611954, 11.019223420062076 ], [ 77.028832346200346, 11.02140480671796 ], [ 77.023163119912908, 11.025380425401616 ], [ 77.02316311991288, 11.025380425401613 ], [ 77.028832346200332, 11.021404806717937 ], [ 77.03174159361194, 11.019223420062058 ], [ 77.039294439759814, 11.013643625114906 ] ], [ [ 77.048898406756024, 11.00905267526954 ], [ 77.048824635087158, 11.008885770364412 ], [ 77.048822650860942, 11.008598807471653 ], [ 77.049368608767693, 11.007040667761848 ], [ 77.049069265310706, 11.006729494186565 ], [ 77.049368608767722, 11.007040667761844 ], [ 77.048822650860956, 11.00859880747165 ], [ 77.048824635087172, 11.008885770364433 ], [ 77.048898406756038, 11.009052675269562 ], [ 77.048727763008586, 11.009155402656596 ], [ 77.048898406756024, 11.00905267526954 ] ], [ [ 77.02539397611946, 11.025673306673415 ], [ 77.025550986298782, 11.025741298741789 ], [ 77.025393976119446, 11.025673306673415 ], [ 77.025361740750682, 11.025671181471244 ], [ 77.02539397611946, 11.025673306673415 ] ], [ [ 77.038094023726202, 11.025711735030292 ], [ 77.038483958601347, 11.025724517070069 ], [ 77.038094023726217, 11.025711735030297 ], [ 77.037527182867834, 11.02566668208032 ], [ 77.038094023726202, 11.025711735030292 ] ] ] } }
]
}
